Domain,Country,Region,City,Postcode,Road,Road Number
umbrawindowtinting.com,United States,Illinois,Schaumburg,60195,W Higgins Rd,811
embcmonroe.org,United States,North Carolina,Monroe,28112,Maurice St,503
sk4designs.com,United States,Colorado,Telluride,81435,Mahoney Dr,295
societyfortheblind.org,United States,California,Sacramento,95811,Society for,27
wyandottewinery.com,United States,Ohio,Columbus,43230,Wyandotte Winery LLC 4640 Wyandotte Dr Columbus,2024
clubk-9.com,United States,Oregon,Portland,97217,N Curtis Ave,7427
triplecrownconstruction.com,United States,Maryland,Frederick,21704,Tilco Drive,1525
greyhackle.com,United States,Arizona,Payson,85541,E Christopher Creek Loop,1520
casepaper.com,United States,New York,Harrison,10528,Mamaroneck Avenue,203
searchouthomes.com,United States,Idaho,Meridian,83642,S Jade Way,1739
richardbrothersfinancial.com,United States,Maine,South Portland,04106,Donald B Dean Drive,50
paramountlandtitle.com,United States,Tennessee,Knoxville,37923,Sony Lane,8904
aiwoodwork.com,United States,California,Simi Valley,93065,Chain Drive,2355
twinpondsnashua.com,United States,New Hampshire,Nashua,03062,Spit Brook Rd,105
neutresalon.com,United States,Maryland,Frederick,21701,S Market Street,101
glacier.chat,United States,Maryland,Annapolis Junction,20701,Sentinel Drive,302
systemadix.com,United States,Maryland,Frederick,21701,E Patrick St,122
seniorcareagencyny.com,United States,New York,Levittown,11756,Hempstead Tpke,3601
superfitfoods.co,United States,Georgia,Columbus,31907,Buena Vista Rd,6524
seforensic.com,United States,Florida,Tallahassee,32303,Capital Cir NW,5349
allmakeappliancerepair.com,United States,California,San Francisco,94109,O Farrell St,608
yuppypuppyboutique.com,United States,Wisconsin,Blair,54616,East Olson St,852
isberg-nott.com,United States,California,Pleasanton,94566,First St,4725
stmatthewmedina.org,United States,Ohio,Medina,44256,N Broadway Street,00
atlasuhv.com,United States,Missouri,Saint Louis,63132,Olive Blvd,9374
gopremier.biz,United States,Texas,Plano,75074,E Plano Pkwy,3001
atlanticbeach-nc.com,United States,North Carolina,Atlantic Beach,28512,West Fort Macon Rd,125
kiddsmith.com,United States,South Carolina,Boiling Springs,29316,Riviera Drive,117
jackiescleaning.com,United States,Maine,Lewiston,04240,Crowley Rd,116
purcellvilledental.com,United States,Virginia,Purcellville,20132,East Main Street,609
fcllp.com,United States,New York,New York,10022,Lexington Avenue,570
artofthelakes.org,United States,Minnesota,Battle Lake,56515,Lake Avenue,108
vahcbsa.org,United States,Virginia,Staunton,24401,Greenville Avenue,617
bentsoninsurance.net,United States,New York,Staten Island,10310,Forest Ave,653
hugsforhealing.org,United States,Texas,Woodway,76712,Hillcrest Medical Blvd,150
allenvillagejewelers.com,United States,Texas,Allen,75002,E Stacy Rd,190
panniergraphics.com,United States,Pennsylvania,Gibsonia,15044,Oak Road,345
roensalvage.com,United States,Wisconsin,Sturgeon Bay,54235,E Redwood St,180
microcapmarketplace.com,United States,Virginia,Mc Lean,22102,Greensboro Dr,8405
hennejewelers.com,United States,Pennsylvania,Pittsburgh,15232,Walnut Street,5501
hscpoly.com,United States,Texas,Midland,79703,Austin St,1011
appwinit.com,United States,New York,New York,10001,Broadway New York,2024
achieveservices.net,United States,Georgia,Atlanta,30339,Parkwood Circle SE,1000
habeggercorp.com,United States,Ohio,Cleveland,44125,Nicky Blvd,4550
pridescholarships.com,United States,California,Patterson,95363,Keystone Blvd,510
thegrindcoffeebar.com,United States,Florida,Tampa,33626,West Linebaugh Ave,9532
aaronsantosdentistry.com,United States,New York,Perkinsville,14529,you make a,85
heidimitchellgolf.com,United States,Georgia,Snellville,30039,Clubside View Ct,3254
acaletics.net,United States,Florida,Fort Lauderdale,33301,S Andrews Ave,115
trinityrentals.com,United States,Texas,Weatherford,76086,S Main St,300
mid-america.com,United States,Minnesota,Minneapolis,55413,Broadway St,2500
onlinemarketingmuscle.com,United States,South Carolina,Greenville,29607,Millport Circle,128
goldridgecompanies.com,United States,Wisconsin,Eau Claire,54701,Pinnacle Way,310
luxuryhomecouncil.com,United States,Oregon,Roseburg,97470,Walnut St,1224
sellersconstruction.net,United States,Georgia,Gordon,31031,Milledgeville Hwy,115
enidmad.org,United States,Oklahoma,Enid,73701,N University Ave,129
washingtonareafuelfund.org,United States,District of Columbia,Washington,20024,Maine Ave,1000
chcseia.com,United States,Iowa,Keokuk,52632,Main Street,1618
gipreit.com,United States,Florida,Tampa,33602,E Jackson St,401
luckyprints.com,United States,Illinois,Chicago,60612,W Carroll Ave,2023
wickedislandbakery.com,United States,Massachusetts,Nantucket,02554,B BAYBERRY COURT,items
royersford.com,United States,Pennsylvania,Phoenixville,19460,Township Line Rd,835
selnertreeshrubcare.com,United States,Wisconsin,De Pere,54115,Millennium Ct,711
barmarketingbasics.com,United States,California,Venice,90291,Main St,340
sczc.org,United States,California,Santa Cruz,95060,School St,113
fott.org,United States,Florida,Fort Lauderdale,33317,SW 54th Ave,1300
msland.com,United States,Mississippi,Glendora,38928,- Acres 3667,484
foxbridge.com,United States,Virginia,Leesburg,20176,N King St,23
andersrice.com,United States,North Carolina,Asheville,28806,Patton Avenue,1428
blackbookmarketresearch.com,United States,Florida,Tampa,33607,N Rocky Point Dr,3030
acflagandbanner.com,United States,South Carolina,Duncan,29334,History Flag,US
sjcadets.org,United States,Connecticut,Trumbull,06611,Huntington Tpke Trumbull,2320
ksafe.com,United States,Louisiana,Baker,70714,Main Street,1618
rossmoncure.com,United States,Virginia,Alexandria,22314,North Washington Street,726
youthchallengesports.com,United States,Ohio,Westlake,44145,Sharon Drive,800
eyewitnessforlife.org,United States,Wisconsin,Milwaukee,53226,N Mayfair Rd,2525
thecharlescompany.com,United States,Arizona,Chandler,85248,E Riggs Rd,9666
alwaysmovingandrelocation.org,United States,Colorado,Colorado Springs,80903,N Wahsatch Ave,25
ccaltd.com,United States,Illinois,Chicago,60607,W Van Buren St,600
crossroadsretreat.org,United States,Texas,Caldwell,77836,Cross Road,255
militiahillsecurity.com,United States,Pennsylvania,Plymouth Meeting,19462,Butler Pike A105,4110
summitdebate.com,United States,Massachusetts,Dorchester,02125,Morrissey Blvd,100
gandwengineering.com,United States,Missouri,Maryland Heights,63043,Weldon Parkway Maryland Heights,138
goleadingit.com,United States,Illinois,Woodstock,60098,E Jackson St,333
athensgop.com,United States,Georgia,Athens,30606,Old Epps Bridge Road,236
tacticalmuscle.com,United States,West Virginia,Talcott,24981,support topic,table
bridge.legal,United States,Washington,Seattle,98121,Lenora Street,300
forestrylaw.com,United States,New York,Buffalo,14202,Fountain Plaza Suite,12
airspaceconsulting.com,United States,California,Carlsbad,92008,Palomar Airport Road,2100
casaallegra.org,United States,California,San Rafael,94903,Mitchell Blvd,35
pinetreeseafood.com,United States,Maine,Scarborough,04074,US-1,655
tpcsecurity.com,United States,Kansas,Overland Park,66212,Metcalf Ave,9350
ehstech.com,United States,Ohio,Dayton,45439,Springboro West Rd,2912
emilyseventsaz.com,United States,Arizona,Scottsdale,85260,E Redfield Rd,7625
cybersofttechnologies.com,United States,Maryland,Lanham,20706,Annapolis Road,9418
kingkream.com,United States,California,Chula Vista,91911,Anita St,767
argocontact.com,United States,Georgia,West Point,31833,O G Skinner Drive,1791
specialtybolt.com,United States,Massachusetts,Agawam,01001,Bowles Rd,235
grablerealestate.com,United States,Texas,Fort Worth,76107,Camp Bowie Blvd,6387
hypnosistrainingnewyork.org,United States,New York,New York,10001,West 30th St,NYC
jobmatic.com,United States,Florida,Fort Walton Beach,32547,Mar Walt Dr,1000
westcoastseafood.com,United States,California,Simi Valley,93065,E Los Angeles Ave,2814
corpimprints.com,United States,Colorado,Denver,80223,Lipan St,55
treehill.org,United States,Florida,Jacksonville,32211,Lone Star Road,7152
cannabis-seed.us,United States,Arizona,Bullhead City,86429,AZ-95,1000
heavenlysunshine.com,United States,Mississippi,Southaven,38671,Southview Street,9170
pure111.com,United States,Illinois,Fairview Heights,62208,Frank Scott Parkway East,391
mbanj.com,United States,New Jersey,Egg Harbor Township,08234,Ocean Heights Ave,3016
tatankastone.com,United States,California,Mountain View,94043,Amphitheatre Parkway,1600
bayareaturf.net,United States,California,Livermore,94551,Nissen Drive Livermore,2310
advnetsol.com,United States,California,Bakersfield,93301,F St,1527
dynamichealthcarolinas.com,United States,North Carolina,Charlotte,28217,South Blvd Charlotte,4705
ncc.us,United States,Illinois,Oak Brook,60523,Commerce Dr,815
tricountymustangclub.com,United States,California,Oxnard,93031,Oxnard,6507
tristatecontainer.com,United States,Pennsylvania,Bethlehem,18020,State Rd,2260
naceyes.com,United States,Texas,Nacogdoches,75965,N University Drive,3208
manudyn.com,United States,New York,Mamaroneck,10543,Mamaroneck Ave,875
postermuseum.com,United States,New York,New York,10007,Chambers St,122
thedevoregroup.com,United States,Pennsylvania,Fairview,16415,Old Ridge Road,7101
gunsafes.com,United States,Texas,Carrollton,75011,View More Info,00
customrebuiltcarbs.com,United States,New Jersey,Middlesex,08846,Wood Ave,200a
gardenplaincoop.com,United States,Kansas,Iuka,67066,Main St,109
wisr.edu,United States,California,Berkeley,94707,San Pedro Ave,1812
milwaukee-montessori.org,United States,Wisconsin,Milwaukee,53226,N 95th St,259
northparkpres.org,United States,Texas,Dallas,75231,N Central Expy,9555
spifunds.com,United States,New Jersey,Summit,07901,Maple Street,47
rybergconstruction.net,United States,Alabama,Auburn,36830,Bibb Ave,912
channell.com,United States,Texas,Rockwall,75087,Justin Rd,1700
terradynecountryclub.com,United States,Kansas,Andover,67002,Terradyne Drive,1400
bestnapleshomesearch.com,United States,Florida,Naples,34109,Pine Ridge Rd,1495
adgcreative.net,United States,Maryland,Columbia,21046,Columbia Gateway Dr,7151
jandrcustomwalls.com,Georgia,Nevada,Carson City,89701,Carson Street,711
wildlifeart.org,United States,Wyoming,Jackson,83001,Rungius Rd,2820
justaminutellc.com,United States,Arizona,Mesa,85203,N Spencer,1220
ekeepersystems.com,United States,Indiana,Yorktown,47396,W Kilgore Ave,7701
crownpaintinginc.com,United States,California,Modesto,95356,Galaxy Way,641
mattressplus.tv,United States,Louisiana,Shreveport,71105,Youree Drive,3964
winehausfw.com,United States,Texas,Fort Worth,76110,Park Place Ave,1628
fbassoc.com,United States,New York,New York,10003,E 14th St,111
ynotitalian.com,United States,Virginia,Virginia Beach,23454,Great Neck Square,2102
vitalizechiropractic.com,United States,Illinois,Belleville,62226,Benchmark Centre Swansea,4980
cbssquaredinc.com,United States,Minnesota,Minneapolis,55413,First Avenue,615
stgcom.com,United States,Ohio,Columbiana,44408,Wardingley Ave,1401
dmaa.net,United States,Michigan,Bloomfield Hills,48302,Bloomfield Hills,2550
portcitygraphics.com,United States,Maine,Gorham,04038,MAIN ST,664
icscomplete.com,United States,California,Santa Ana,92704,S Susan St,3750
entosdesign.com,United States,Texas,Dallas,75240,LBJ FREEWAY,5400
thecolombygroup.com,United States,California,Marina Del Rey,90292,Glencoe Ave,4115
seniorvillagerehab.com,United States,Louisiana,Opelousas,70570,Harry Guilbeau Road,315
merrickgroupinc.com,United States,Pennsylvania,Hazleton,18202,Unico Dr,100
dillinghammurphy.com,United States,California,San Francisco,94104,Sansome Street,
155frontdoorstl.com,United States,Missouri,Saint Louis,63110,Manchester Ave,4240
eatrightdelaware.org,United States,Pennsylvania,Bedford,15522,S Juliana St,205
patiocomforts.com,United States,Texas,Austin,78731,Austin Center Blvd,6800
ossininglibrary.org,United States,New York,Ossining,10562,Croton Avenue,via
inetmotors.com,United States,Texas,Dallas,75234,Villa Creek Drive,2695
urbanacres.com,United States,Iowa,Iowa City,52245,Washington St,1122
perryridgelandfill.com,United States,Illinois,Du Quoin,62832,Sacred Heart Road,2024
thecreditpeople.com,United States,Utah,Midvale,84047,Cottonwood Heights,6975
boccarossainsurance.com,United States,Connecticut,Milford,06460,Bridgeport Ave,220
abmechanical.com,United States,California,Livermore,94550,Railroad Ave,2252
salvometalworks.com,United States,Illinois,Naperville,60563,W 5th Ave,566
copyarmy.com,United States,Pennsylvania,Elizabethtown,17022,N Market St,412
lombardglobal.com,United States,Texas,Austin,78701,W 2nd St,500
violenceinterventionprogram.org,United States,California,Los Angeles,90031,Griffin Avenue,1721
jenbeckeracupuncture.com,United States,New York,New York,10013,Centre St,217
ypmphotography.com,United States,North Carolina,Charlotte,28277,Lanigan St,9154
creative-earthscapes.com,United States,Ohio,Columbus,43213,Morrison Rd,376
uniquelibrary.com,United States,Indiana,Jeffersonville,47130,E Maple Street,119
classicgardens.com,United States,Alabama,Birmingham,35215,Carson Road,1855
soteria.io,United States,South Carolina,North Charleston,29405,Leeds Ave,4401
lssa2320.org,United States,New York,New York,10001,W 31st St,350
smokyhillmuseum.org,United States,Kansas,Salina,67401,West Iron Avenue,211
creartiveinc.com,United States,South Carolina,Myrtle Beach,29578,Myrtle Beach,3245
jonesgrove.com,United States,North Carolina,Charlotte,28209,Mockingbird Lane Suite,1515
johanningsinc.com,United States,Ohio,Louisville,44641,Trojan St,5945
pproa.org,United States,Texas,Amarillo,79106,Bell St,3131
daybreakoutsourcing.com,United States,Tennessee,Memphis,38125,Hacks Cross Rd,3750
sacredspacemiami.com,United States,Florida,Miami,33137,NE 24th St,105
whitehallcamp.org,United States,Pennsylvania,Emlenton,16373,Whitehall Rd,8040
rbroadconcrete.com,United States,New York,Alden,14004,Rod Rd,3
beemlaw.com,United States,Illinois,Chicago,60606,North Wacker Drive,2012
shorecorporation.com,United States,Pennsylvania,Ambridge,15003,Duss Ave,412
lamprinostv.com,United States,Pennsylvania,Lewisburg,17837,Old Turnpike Rd,9300
centerlinelogistics.com,United States,Washington,Seattle,98134,SW Spokane Street,628
ctfamilypt.com,United States,Connecticut,Westport,06880,Post Rd,735
wichitaacademyofpharmacists.org,United States,Kansas,Topeka,66604,SW Fairlawn Rd,1020
dreng.com,United States,Michigan,Milford,48380,S Hickory Ridge,2414
billysingh.com,United States,New York,New Hyde Park,11040,Union Tpke Suite,1300
airstreamlosangeles.com,United States,California,San Gabriel,91776,E Las Tunas Dr,1212
smartwarehousing.com,United States,Kansas,Overland Park,66204,Overland Park,7309
pointofdata.com,United States,Virginia,Alexandria,22314,Dulany St,600
paykings.com,United States,Florida,Saint Petersburg,33701,Central Ave,433
fatandjuicy.com,United States,New York,Hartwick,13348,Letter PO,A
commongroundchildcare.org,United States,Virginia,Reston,20190,Wainwright drive,1700
thomcomm.com,United States,Missouri,Marshfield,65706,W Jefferson St,200
ad-west.com,United States,Washington,Issaquah,98027,Rainier Blvd,545
scenicviewcc.com,United States,Wisconsin,Slinger,53086,Club Drive,4415
bcpas.com,United States,Tennessee,Brentwood,37027,Ward Circle Brentwood,215
abetterbugman.com,United States,Florida,Fort Myers,33908,Emily Drive,7212
optimumcarehomecare.com,United States,Virginia,Stafford,22554,Fettler Park Drive,3683
adkfragrancefarm.com,United States,New York,Potsdam,13676,HWY-72,1551
aperations.com,United States,California,Walnut Creek,94596,Walnut Creek,2121
sardisbaptist.com,United States,North Carolina,Indian Trail,28079,Unionville-Indian Trail,3602
yanceyworks.com,United States,California,Roseville,95678,Reserve Dr,919
bocahomecareservices.com,United States,Florida,Boca Raton,33431,NW 2nd Ave,4700
bigideas.com,United States,Minnesota,Saint Paul,55113,Oakcrest Avenue Roseville,1975
iqfitness.net,United States,Georgia,Atlanta,30309,-B Peachtree Road,2303
cjmcbride.org,United States,Alabama,Foley,36536,Foley,2187
aatoppers.com,United States,Colorado,Denver,80214,West Colfax Lakewood,6955
tellusoperating.com,United States,Mississippi,Ridgeland,39157,Crescent Place,602
santasophia.org,United States,California,Spring Valley,91977,San Juan St,9800
premierdentalcareofbuckhead.com,United States,Georgia,Atlanta,30305,Piedmont Road,3580
hamlinlakeboatrentals.com,United States,Michigan,Ludington,49431,N Lakeshore Dr,3461
adventures-in-learning.org,United States,New York,Manhasset,11030,High St,65
danashouse.org,United States,Arkansas,De Witt,72042,S Jefferson St,108
thundermountainharley.com,United States,Colorado,Loveland,80538,Byrd Drive,4250
marysvillelib.org,United States,Ohio,Marysville,43040,S Plum Street,231
kauffmangas.com,United States,Pennsylvania,Atglen,19310,Gap Newport Pike,850
stationinnpa.com,United States,Pennsylvania,Cresson,16630,Front St,827
westfloproducts.com,United States,Texas,Pasadena,77506,Pasadena Fwy C,921
erling.com,United States,Texas,Hutto,78634,Benelli Drive,225
sprucemountaininn.com,United States,Vermont,Plainfield,05667,Towne Avenue,153
texasafterviolence.org,United States,Texas,Austin,78704,S Congress Ave,611
frclothingandsupply.com,United States,Colorado,Platteville,80651,Justin Ave,340
itsabouttimeboutique.com,United States,Georgia,Cartersville,30120,East Main Street,9
horizonconvention.com,United States,Indiana,Muncie,47305,S High Street,401
wvcrossroads.com,United States,West Virginia,Morgantown,26505,Garrison Ave,775
ourbellinis.com,United States,Alabama,Birmingham,35242,Cahaba Valley Rd,6801
poly6.com,United States,Massachusetts,Burlington,01803,MIDDLESEX TPKE,164
cityave.org,United States,Pennsylvania,Philadelphia,19131,Monument Rd,4300
reshapelifesciences.com,United States,California,Irvine,92618,Technology Drive,18
kleinwoodvision.com,United States,Texas,Spring,77379,Louetta Road Suite,7312
changemanagementreview.com,United States,North Carolina,Concord,28027,Bayfield Pky,6012
thekeirweimerteam.com,United States,New York,New York,10022,Park Avenue,430
bgcworcester.org,United States,Massachusetts,Dudley,01571,Oxford Ave,55
oncuestaging.com,United States,Texas,Carrollton,75007,E Rosemeade Pkwy,1846
westbrosinc.com,United States,Utah,Salt Lake City,84123,S Riverside Dr,4740
chasepropertyllc.com,United States,Illinois,Chicago,60626,N Sheridan Rd,7239
demaeng.com,United States,Oregon,Langlois,97450,Rue Lambert,12
trivan.com,United States,Washington,Ferndale,98248,W Smith Rd,1385
birminghambuilder.com,United States,Alabama,Birmingham,35243,International Park Place,2401
fccmwc.org,United States,New York,Mastic,11950,First Christian Church 11950,2024
oakhousefilms.com,United States,New York,New York,10001,W 34th St,330
dellsducks.com,United States,Wisconsin,Wisconsin Dells,53965,Wisconsin Dells Parkway,1550
floridacommercialteam.com,United States,Florida,Miami,33143,Red Road South,7220
chisholmarchitects.com,United States,Florida,Miami,33126,NW 42nd Ave,782
novellasrecycling.com,United States,Connecticut,Danbury,06810,Thorpe Street,5
trifectamedspanyc.com,United States,New York,New York,10006,Broadway,115
santaclarajumpers.com,United States,California,Santa Clara,95050,Walsh Ave,2116
lchealth.org,United States,Massachusetts,Lowell,01852,Jackson Street,161
mimovers.org,United States,Michigan,Hudsonville,49426,Polk St,6973
lrgmarketing.com,United States,New York,Nyack,10960,Burd Street,48
apicaucus.org,United States,California,San Francisco,94109,Toklas Place,151
pripo.com,United States,North Carolina,Asheville,28801,Church St,77
andonelect.com,United States,Rhode Island,Lincoln,02865,Court Dr,4
moline.com,United States,Minnesota,Duluth,55807,South Central Avenue,114
weberortho.com,United States,Illinois,Wheaton,60187,W Willow Ave,210
folsomshope.org,United States,California,Folsom,95630,Blue Ravine Road,1100
precisioninternational.com,United States,North Carolina,Asheville,28806,Sardis Road Asheville,23
instituteod.com,United States,Florida,Fort Myers,33919,College Pkwy,8595
dentremovalcedarfalls.com,United States,Iowa,Cedar Falls,50613,Fast Lane,3620
schoolofcosmeticarts.com,United States,New York,Chenango Bridge,13745,NW 7th St,5743
coregearusa.com,United States,California,Riverside,92508,E Alessandro Blvd,231
kindlersgemjewelers.com,United States,Texas,Waco,76711,Marketplace Dr,2816
tamethewater.com,United States,Alabama,Athens,35611,US Hwy 72 E,1044
bakerbrand.com,United States,Massachusetts,Cambridge,02142,Binney St,301
bregmanpartners.com,United States,California,Stanford,94305,Campus Drive,291
taxprepusa.com,United States,Florida,Tampa,33609,W Kennedy Blvd,4830
wesleyhousing.org,United States,Virginia,Alexandria,22303,Huntington Ave,2311
leathercoatsetc.com,United States,New York,New York,10018,Leather Coat,1333
coxreels.com,United States,Arizona,Tempe,85283,S Ash Ave,5865
promoviper.com,United States,Georgia,Hazlehurst,31539,Post Rd,1266
meditatingentrepreneur.com,United States,Iowa,Fairfield,52556,N Court St,110
fiba.net,United States,Florida,Miami,33130,SW 8th St,2170
billingssecuritycameras.com,United States,Montana,Billings,59101,Broadwater Ave,230
valentbiosciences.com,United States,Illinois,Libertyville,60048,Innovation Way,1910
switcheyecenter.com,United States,Michigan,Taylor,48180,Telegraph Road,8950
tkimages.com,United States,Texas,Houston,77007,Asbury St,241
canceriq.com,United States,Illinois,Chicago,60611,Michigan Ave,400
parkwaytoyota.com,United States,New Jersey,Englewood Cliffs,07632,Sylvan Avenue,50
mojenta.com,United States,California,San Diego,92103,Park Blvd,4075
sherinixonteam.com,United States,South Carolina,Hilton Head Island,29926,Lafayette Place,8
synpoly.com,United States,Texas,Sugar Land,77487,Sugar Land,69
harborlightsri.com,United States,Rhode Island,Warwick,02886,Post Road,2138
gokeyless.com,United States,Ohio,Miamisburg,45342,Mound Rd,247
tcors.com,United States,Connecticut,New London,06320,Broad Street,58
stonearchcapital.com,United States,Minnesota,Minneapolis,55402,S 7th Street,227
fmsymphony.org,United States,North Dakota,Fargo,58103,3rd Ave,808
gtownradio.com,United States,Pennsylvania,Philadelphia,19144,Maplewood Mall Philadelphia,24
scadametrics.com,United States,Texas,Mansfield,76063,Regency Pkwy,101
usmrc.org,United States,Rhode Island,Middletown,02842,Aquidneck Avenue,344
artslettersandnumbers.com,United States,New York,Averill Park,12018,Burden Lake Rd,1543
tri-starmechanical.com,United States,Illinois,Elk Grove Village,60007,Joey Drive,114
oregonsportshall.org,United States,Oregon,Beaverton,97005,SW Western Ave,4840
barefootinternational.com,United States,Wisconsin,Milwaukee,53212,N Richards St,3879
airservicesco.com,United States,Illinois,Elk Grove Village,60007,Seegers Avenue,211
deltaglobalinvestments.com,United States,Massachusetts,Bolton,01740,Main St,579
rodneyyoungphotography.com,United States,Texas,Mansfield,76063,Zachary Ct,1
superiordistribution.net,United States,Texas,Mckinney,75070,State Highway 121,7440
dfrealtors.com,United States,New Jersey,Stone Harbor,08247,3rd Ave,9614
moviestarjacket.com,United States,New Jersey,New Providence,07974,Williams Mine Road,1044
ugrokit.com,United States,Colorado,Steamboat Springs,80477,24 5th Street,770852
shadowhills.org,United States,Nevada,Las Vegas,89128,Vegas Dr,7811
smallgirlspr.com,United States,New York,New York,10011,W 22nd St,150
warsawwireless.com,United States,Ohio,Cincinnati,45205,Warsaw ave,3417
pusd.us,United States,California,Pasadena,91101,E Green St,300
florestaurant.com,United States,Washington,Bellevue,98004,106TH AVE NE,1150
vetsource.com,United States,Oregon,Portland,97220,NE Cascades Parkway,operated
vcms.org,United States,Florida,Daytona Beach,32114,N Clyde Morris Blvd,303
armstrongambulance.com,United States,Massachusetts,Arlington,02474,Mystic Street,87
homebrewing.org,United States,Minnesota,Saint Paul,55113,Highway 36 West Roseville,2221
sidebysideclubhouse.org,United States,Georgia,Stone Mountain,30083,Main Street,1001
boulderbrook.com,United States,Colorado,Estes Park,80517,Fall River Rd,1900
camphillvillage.org,United States,New York,Tivoli,12583,Camp Hill Road,84
ultimaterotator.com,United States,California,Beverly Hills,90211,South Wetherly Drive,345
brycetech.com,United States,Virginia,Alexandria,22314,King St,1737
parry-insurance.com,United States,Pennsylvania,Langhorne,19047,Corporate Drive,107
wtxfoodbank.org,United States,Texas,Odessa,79761,South Pagewood Avenue,411
nationalforests.org,United States,California,South Lake Tahoe,96150,College Dr,35
mapsautocenter.com,United States,Florida,Tampa,33609,W Kennedy Blvd,4830
dcsrvcenter.com,United States,California,Tehachapi,93561,Bailey Ave,610
fairmans.com,United States,Pennsylvania,West Chester,19380,West Gay Street,43
endevon.com,United States,New York,New York,10022,Lexington Avenue,641
lancastermennonite.org,United States,Pennsylvania,Lancaster,17602,Lincoln Hwy E,2176
ewingbuildingandcabinets.com,United States,Virginia,Blacksburg,24060,S Main St,1701
teamecco.org,United States,North Carolina,Hendersonville,28792,N Main St,511
outoftownclothing.com,United States,North Dakota,Dickinson,58601,Market Drive,1750
theflounderfishcamp.com,United States,South Carolina,Spartanburg,29303,Barbado Ln,160
thornefinancialpartners.com,United States,Massachusetts,Hyannis,02601,Independence Drive,100
heritagelifestyledoors.com,United States,Colorado,Denver,80212,W 38th Ave,4300
theswag.com,United States,North Carolina,Waynesville,28785,Swag Road Waynesville,2300
eastbaypreschools.com,United States,California,Alamo,94507,Laverock Lane,1261
cornerstone-mosinee.com,United States,Wisconsin,Mosinee,54455,5th St,601
drinkmebeverages.com,United States,California,Redondo Beach,90277,N Pacific Coast Hwy,553
greatstatetransmissions.com,United States,Texas,Corpus Christi,78415,S Padre Island Dr,3487
upswing.com,United States,California,Morgan Hill,95037,Morgan Hill,190
theorganicbutcher.com,United States,Virginia,Mc Lean,22101,Old Dominion Dr,6712
joylux.com,United States,Washington,Seattle,98122,Lakeside Avenue,detailed
flstatewideinsurance.com,United States,Florida,Apollo Beach,33572,Frond Way,5954
solarlightsandmore.com,United States,Florida,Ocala,34474,SW 6th Pl,5640
kuk24.de,Germany,Baden-Württemberg,Ehningen,71139,Mercedesstraße,13
cantus-bahn.de,Germany,Berlin,Berlin,10623,Fasanenstraße,81
akzent-personal.de,Germany,Thüringen,Altenburg,04600,Johannisstraße,7
freiberuflervermittlung.de,Germany,Bayern,Eichenau,82223,Sandstraße,3
cimt.eu,Germany,Rheinland-Pfalz,Mainz,55130,Göttelmannstr,17
hopegala.de,Germany,Nordrhein-Westfalen,Bonn,53111,Münsterstraße,18
binect.de,Germany,Hessen,Weiterstadt,64331,Brunnenweg,17
antenne-bethel.de,Germany,Nordrhein-Westfalen,Düsseldorf,40221,Zollhof,2
schuhhause.de,Germany,Nordrhein-Westfalen,Tönisvorst,47918,5-Zehen Kuhstraße,3
twt-online-marketing.de,Germany,Nordrhein-Westfalen,Düsseldorf,40211,Adlerstraße,74
hostnet.de,Germany,Bremen,Bremen,28205,Osterdeich,107
wissensschule.de,Germany,Nordrhein-Westfalen,Bergisch Gladbach,51465,Am Alten Pastorat,25
bdia.de,Germany,Berlin,Berlin,10179,Wilhelmine-Gemberg-Weg,6
deutscheip.de,Germany,Hessen,Darmstadt,64285,Matthias Mayer Moosbergstr,88
spectra.de,Germany,Baden-Württemberg,Reutlingen,72768,Mahdenstraße,3
infuu.de,Germany,Berlin,Berlin,12349,Conrady Sandsteinweg,8
erci-fanprojekt.de,Germany,Bayern,Gaimersheim,85080,Obertorweg,9
winnerbatterien.de,Germany,Baden-Württemberg,Mannheim,68199,Casterfeldstr,66-72
sweet-n-low.de,Germany,Nordrhein-Westfalen,Bergisch Gladbach,51429,Im Alten Feld,21D
kessel.de,Germany,Bayern,Lenting,85101,Bahnhofstraße,31
alegria-seminare.de,Germany,Bayern,München,80807,Weber Taunusstraße,19
youngtimertrophy.de,Germany,Rheinland-Pfalz,Dümpelfeld,53520,Boulevard,1
bad-harzburg.de,Germany,Niedersachsen,Bad Harzburg Westerode,38667,Nordhäuser Straße,4
begehbares-glas.com,United States,California,Covina,91723,Barranca Ave,440
quorion.de,Germany,,Erfurt,99095,An d Klinge,6
eventflotte.de,Germany,Rheinland-Pfalz,Sinzig,53489,Kranzweiherweg,12
westpharma.com,United States,Pennsylvania,Exton,19341,Herman O,530
tdh.de,Germany,Niedersachsen,Osnabrück,49084,Ruppenkampstr,11a
rs-torsysteme.de,Germany,Hessen,Limburg an der Lahn,65555,Co KG Limburger Straße,78
fau.eu,,Bayern,Nürnberg,90429,Bärenschanzstraße,72
polizeioldtimer.de,Germany,Hessen,Marburg,35043,Raiffeisenstraße,1
go-east.de,Germany,Hamburg,Hamburg Bahrenfeld,22761,Woyrschweg,54
innovative-pixel.de,Germany,Niedersachsen,Ronnenberg,30952,Sieben-Trappen-Str,29
inkota.de,Germany,Berlin,Berlin,10407,Chrysanthemenstraße,1-3
fogra.org,United States,Maryland,Tall Timbers,20690,Fogra entwickelte,die
klickrent.de,Germany,Berlin,Berlin,12435,Elsenstraße,106
wahretabelle.de,Germany,Hamburg,Hamburg Wandsbek,22041,Co KG Wandsbeker Zollstraße,5a
malteserjugend-speyer.de,Germany,Rheinland-Pfalz,Speyer,67346,Speyer Alter Postweg,1
joest-racing.de,Germany,Hessen,Wald-Michelbach,69483,Bahnstr,14
gini.net,United States,Massachusetts,Cambridge,02141,First Street,25
hk-bs.de,Germany,Saarland,Friedrichsthal,66299,St -Barbara-Straße,12
kamps.de,Germany,Bayern,Nürnberg,90473,Glogauer Str,30 - 38
kinderturnstiftung-bw.de,Germany,Baden-Württemberg,Stuttgart,70372,Württemberg Fritz-Walter-Weg,19
data2fact.de,Germany,Hessen,Königstein im Taunus,61462,Klaus Rohrmoser Am Wallgraben,6a
nextim.de,Germany,Rheinland-Pfalz,Hundsdorf,56235,NEXTIM Herrmann Kommunikation Rheinstraße,96
academyconsult.de,Germany,Bayern,München,80802,Leopoldstraße,62
nuvitababy.com,United States,California,Mountain View,94043,Amphitheatre Parkway,1600
nabu.de,Germany,Berlin,Berlin,10117,NABU Charitéstraße,3
science-on-stage.eu,Germany,Berlin,Berlin,13507,Am Borsigturm,15
solaranlagen-portal.de,Germany,Bayern,München,80336,Goethestraße,20
landmark-fine-travel.de,Germany,Nordrhein-Westfalen,Erftstadt,50374,Hochstr,40a
internetx.com,United States,California,San Francisco,94107,Townsend St,101
campingshop-24.de,Germany,Nordrhein-Westfalen,Velen,46342,Schlattskamp,15
teamwire.eu,United States,New Jersey,Newark,07114,Brewster Rd,3
dailyme.de,Germany,Bayern,Planegg,82152,Lochhamer Str,9
sebastian-klammer.de,Germany,Berlin,Berlin,10179,Littenstraße,10
rapidmail.de,Germany,Baden-Württemberg,Freiburg im Breisgau,79106,Wentzingerstraße,21
stadionwelt.de,Germany,Nordrhein-Westfalen,Brühl,50321,Stadionwelt Schloßstraße,23
jkstein.de,Germany,Bayern,München,81679,Mauerkircherstr,8
skoobe.de,Germany,Bayern,München,80336,Pettenkoferstraße,24
bundesjugend.de,Germany,Rheinland-Pfalz,Wittlich,54516,Kurfürstenstraße,63
g-m-m.de,Germany,Bayern,München,81829,Valentin-Linhof-Straße,2
frankfurt-holm.de,Germany,Hessen,Frankfurt am Main,60549,Bessie-Coleman-Straße,7
trankvile.com,United States,Baden-Württemberg,Kehl,77694,Straßburger Straße,8
kiwi-consulting.de,Germany,Baden-Württemberg,Weinsberg,74189,Haller Straße,54
digitalcoregraphics.de,Germany,Niedersachsen,Wilhelmshaven,26389,Paul-Klee-Straße,10
postproductions.de,Germany,Hamburg,Hamburg Hamburg-Altstadt,20457,Hongkongstraße,3
malteser-wetzlar.de,Germany,Hessen,Wetzlar,35578,Christian-Kremp-Straße,17
ifw-dresden.de,Germany,Sachsen,Dresden,01069,Helmholtzstraße,20
sams-think-special.de,Germany,Bayern,Gräfelfing,82166,Wandlhamerstraße,25
franzel.de,Germany,Hessen,Hessisch Lichtenau,37235,Königsberger Str,14b
dresden-onlineshop.de,Germany,Sachsen,Hellerau,01109,Sagarder Weg,1
frings.com,United States,Michigan,Grand Rapids,49503,Monroe NW,250
inside-digital.de,Germany,Nordrhein-Westfalen,Brühl,50321,Kölnstraße,50
mowaii.com,United States,California,Mountain View,94043,Amphitheatre Parkway,1600
wiverndigital.com,United States,California,Mountain View,94043,Amphitheatre Parkway,1600
stefanhobmaier.com,United States,California,Mountain View,94043,Stierlin Court Mountain View,2029
drehmoment-gmbh.de,Germany,Baden-Württemberg,Tübingen,72072,Holzmarkt,7
oezgen-senol.de,Germany,Bayern,Feucht,90537,Özgen Senol Sonnenstr,6
hirschberg-sauerland.de,Germany,Nordrhein-Westfalen,Warstein,59581,Clemens-August-Straße,18
laguiole-laguiole.de,Germany,Nordrhein-Westfalen,Krefeld,47809,Gelleper Str,32
igo-werbeartikel.de,Germany,Brandenburg,Britz,16230,Eberswalder Str,1A
theatermakeup.de,Germany,Berlin,Berlin,13435,Haus,4
haasehof.de,Germany,Schleswig-Holstein,Engelbrechtsche Wildnis,25348,Stadtstraße,35
jazzradio.net,Brazil,Berlin,Berlin,10789,Passauer Str,8-9
mp-gruppe.de,Germany,Niedersachsen,Braunschweig,38114,Gruppe Gablonzstraße,2
gargiulo.de,Germany,Baden-Württemberg,Nehren,72147,Daimlerstr,21
aetka.de,Germany,Bayern,München,80992,Georg-Brauchle-Ring,50
goettfert.de,Germany,Baden-Württemberg,Buchen (Odenwald),74722,Postfach,1261
studio-ahoi.de,Germany,Hamburg,Hamburg,20148,Mittelweg,177
dectomusic.com,United States,New York,Coxsackie,12051,Marcus Mundt Schierker,12051
ralphjo.com,United States,California,San Francisco,94104,Pine Street,340
smiletrain.de,Germany,Berlin,Berlin,13353,Augustenburger Pl,1
microtool.de,Germany,Rheinland-Pfalz,Speyer,67346,Georg-Peter-Süß-Straße,2
sprachrausch.com,United States,California,Chino,91710,Industriestr,25
dirkbecker-entertainment.de,Germany,Nordrhein-Westfalen,Köln,51063,Schanzenstraße,37
bos-buero.de,Germany,Nordrhein-Westfalen,Köln,50676,Holzmarkt,2
tobaccofreeliving.org,United States,Louisiana,New Orleans,70112,Tulane Ave,1700
zahnarzt.ac,United States,California,Mountain View,94043,Amphitheatre Pkwy,1600
integrationmatters.com,United States,Kentucky,Louisville,40213,Dusseldorf salesfive,27
signavio.com,United States,Pennsylvania,Newtown Square,19073,West Chester Pike,3999
compiricus.com,United States,Kentucky,Louisville,40213,Company Headquarters Graf,01:00
stephanieforryan.com,United States,Massachusetts,Cambridge,02138,Palmer St,47
viereck-hydraulik.com,United States,West Virginia,Charleston,25337,Marie-Curie-Straße,6
demoup-cliplister.com,United States,Massachusetts,Cambridge,02141,First Street,25
360t.com,United States,New York,New York,10175,Fifth Avenue,521
leon-nanodrugs.com,United States,California,San Diego,92122,Nobel Dr,3655
fame-creativelab.com,United States,California,San Bruno,94066,Cherry Ave,901
geco-event.com,United States,California,Menlo Park,94025,Willow Road,1601
frontalvision.com,United States,Ohio,Pleasant Hill,45359,Karsten Höft,28A
efaflex.com,United States,Michigan,Jonesville,49250,Shaham St,32
tutanota.com,United States,Georgia,Oliver,30449,Deisterstr,17a
raysono.com,United States,Massachusetts,Cambridge,02141,First Street,25
studdex.com,United States,Florida,Tampa,33609,W Kennedy Blvd,4830
toolsgroup.com,United States,Massachusetts,Boston,02110,Federal St,75
phrase.com,United States,Washington,Seattle,98144,30th Ave,515
causalens.com,United States,California,San Francisco,94103,Howard St,1675
thevoipshop.co.uk,United Kingdom,England,Manchester,M1 1WR,Market St,25
starface.com,United States,Massachusetts,Cambridge,02139,Massachusetts Ave,77
kupferbergcenter.org,United States,New York,Flushing,11367,Reeves Avenue,53-49
safebasementsinc.com,United States,North Carolina,Charlotte,28272,Minnie St,28272
jds-sommer.de,Germany,Hessen,Frankfurt am Main,60433,August-Schanz-Straße,28
apartment-hotel.de,Germany,Hamburg,Hamburg Rothenburgsort,20539,Ausschläger Elbdeich,2
klingel-med.de,Germany,Baden-Württemberg,Pforzheim,75181,Hanauer Str.,5-7
microsonic.de,Germany,Nordrhein-Westfalen,Dortmund,44263,Phoenixseestraße,7
realtennisnetwork.com,United States,Michigan,Traverse City,49684,Red Dr,818
billig-banner24.de,Germany,Hamburg,Hamburg Rothenburgsort,20539,Großmannstraße,175
chestnutcaregloucester.co.uk,United Kingdom,England,Gloucester,GL1 5PA,Podsmead Rd,20
newandblue.com,Paraguay,Washington,Vancouver,98668,Vancouver,5735
yorkshireholidaycottages.co.uk,United Kingdom,England,Bideford,EX39 4DF,Company No,4DF
carteraccountants.co.uk,United Kingdom,England,Leicester,LE19 4SA,Warren Park Way,19
teleclinic.com,Germany,Bayern,München,80333,Brienner Straße,45a-d
deekay.co.uk,United Kingdom,England,Davyhulme East Ward,M41 0SS,Davyhulme Cir,6
medhomeplus.org,United States,Virginia,Henrico,23294,Emerywood Pkwy,2924
mfg.de,Germany,Baden-Württemberg,Stuttgart Stuttgart-Mitte,70174,Breitscheidstraße,4
imiconsulting.com,Germany,Niedersachsen,Burgwedel,30938,Auf dem Amtshof,3
gross-fuchs.com,Germany,Bayern,Freising,85356,Südallee,1
porzellanklinik-bremen.de,Germany,Bremen,Bremen,28759,Grohner Markt,3
sportsfreude.com,United States,New York,New York,10014,ÜBERMITTELT WERDEN,8
modelgroup.net,United States,Ohio,Cincinnati,45202,Race Street,1826
remingtons.pro,United States,Illinois,Chicago,60602,N Michigan Ave,20
bluestemgroup.co.uk,United Kingdom,England,Ipswich,IP3 9RR,Bluestem Road,38
itsmgroup.com,Switzerland,Bayern,Nürnberg,90471,Münchener Straße,283
ortonceramic.com,United States,Ohio,Westerville,43082,S Old 3C Rd,6991
schoolfurniture.co.uk,United Kingdom,England,London,SW1X 7HN,Grosvenor Place London,20
portraitbox.com,Germany,Nordrhein-Westfalen,Paderborn,33106,Am Steinhof,4a
nicheworks.co.uk,United Kingdom,Scotland,Edinburgh,EH15 1JU,Duddingston Park,32
oakover.co.uk,United Kingdom,England,Weston-super-Mare,BS23 1DA,Clevedon Rd,25
pulscamp.de,Germany,Berlin,Berlin,10707,Lietzenburger Str.,107
balconyshirts.co.uk,United Kingdom,England,London,UB8 1AB,Windsor St,52
kuchedesign.co.uk,United Kingdom,England,London,NW4 4LE,Wroughton Terrace,4
daymer.com,United Kingdom,England,Shipston on Stour,CV36 4FF,Tilemans Lane,
sixteenfeet.co.uk,United Kingdom,England,London,SW2 1AZ,Rattray Rd,25
baks.co.uk,United Kingdom,England,Bournemouth,BH9 2DB,Wimborne Rd,1058
mediapool.co.uk,United Kingdom,England,London,HA3 7NY,Locket Rd,155
grand-union.org.uk,United Kingdom,England,Birmingham,B5 5RS,Fazeley St,158
redcircledigital.co.uk,United Kingdom,England,London,EC2A 4NE,Paul St,86-90
newportbutane.com,United States,Pennsylvania,Northpoint,15763,Ornelas St.,15763
pfponline.com,United States,California,San Francisco,94105,Spear Street,188
thevetcenter.com,United States,Florida,Gainesville,32606,NW 43RD STREET,5200
pollock.co.uk,United Kingdom,Scotland,Bathgate,EH48 2EY,Blackburn Rd,10
thebluapple.com,United States,Utah,Woods Cross,84087,West 1500,999
kellyandstonearchitects.com,United States,New York,Brooklyn,11209,Brockway Rd,11209
testboy.de,Germany,Niedersachsen,Vechta,49377,Flugplatz,3
raphs-bbq-truck.de,Germany,Nordrhein-Westfalen,Köln,50939,Königswinterstraße,01
paynes-heating.co.uk,United Kingdom,England,Oxted,RH8 9EG,Station Rd W,11
tischlerei-jagsch.de,Germany,Nordrhein-Westfalen,Düsseldorf,40468,Kieshecker Weg,114
poolmarket.co.uk,United Kingdom,England,Saltford,BS31 3DJ,Bath Rd,476
chequermead.org.uk,United Kingdom,Scotland,East Kilbride,G74 5PA,Redwood Cres,2
mse-uk.com,United States,Massachusetts,Millbury,01527,Redditch Worcestershire B97,26
jeanettekidd.com,United Kingdom,Northern Ireland,Lisburn,BT28 1AU,Antrim St,13
azizisearch.com,United States,Wyoming,Sheridan,82801,Coffeen Avenue,1309
sage-research.com,United States,Colorado,Boulder,80304,Broadway Suite,3970
golocal.de,Germany,Nordrhein-Westfalen,Dortmund,44149,Wandweg,1
ammt.com,United States,Kansas,Wichita,67227,D Frankenthal,6
brmins.com,United States,California,Walnut Creek,94597,Treat Blvd,1255
hodgepodgebakeshop.weebly.com,United States,Michigan,Muskegon,49441,Mccracken Street,3361
airtattoo.com,United Kingdom,England,Cirencester,GL7 1LF,Watermoor Rd,116
optima-life.com,United Kingdom,England,St Albans,AL3 5PA,Waverley Road St,14
kiconnections.com,United Kingdom,England,Colchester,CO1 2RT,Guildford Rd,31
lnrothberg.com,United States,New Jersey,Middlesex,08846,Cedar Avenue,550
brotfabrik-berlin.de,Germany,Nordrhein-Westfalen,Bonn,53225,Kreuzstraße,16
elchicanomusic.com,United States,California,Paso Robles,93446,MILL RD,3800
nittardi.com,United States,Wisconsin,Cascade,53011,Nittardi,2022
toplinetireandauto.com,United States,New York,Syracuse,13251,Cortez Blvd,13251
diversitycrna.org,United States,Georgia,Atlanta,30322,Dowman Dr,201
sylt-ferienwohnungen-urlaub.de,Germany,Schleswig-Holstein,Sylt-Ost,25980,Elisabethstraße,9
monsterdisplays.com,United States,Pennsylvania,Scranton,18502,NE 5th Ave,18502
peachymondays.com,United Kingdom,Scotland,Edinburgh,EH12 5HD,Haymarket Terrace,65
eve-audio.com,Germany,Hessen,Seeheim-Jugenheim,64342,Im Kirchwald,6
cornwalldentists.co.uk,United Kingdom,England,Truro,TR1 3AF,Castle St,10
meguiars.co.uk,United Kingdom,England,Daventry,NN11 8UF,Lamport Ct,3
per4med.de,Germany,Hamburg,Hamburg Klostertor,20095,Spitalerstraße,11
werhatoffen.de,Germany,Hamburg,Hamburg Eilbek,22087,Barcastraße,16
tetonthaivillage.com,United States,Wyoming,Teton Village,83025,Granite Loop Road,7342
walternewbury.co.uk,United Kingdom,England,London,RM10 7FD,Rainham Rd,123
mannering-rubber.co.uk,United Kingdom,England,London,SE6 3BT,Bellingham Trading,7
monalisasmiles.co.uk,United Kingdom,England,London,EN5 1PX,Station Rd,83
digitaleheimat.de,Germany,Berlin,Berlin,10627,Wilmersdorfer Str.,123
tsaworld.com,United States,Georgia,Norcross,30071,Adriatic Ct,3011
enhancedlandscape.com,United States,North Carolina,Ivanhoe,28447,Witherspoon Parkway,28447
snowbizz.co.uk,United Kingdom,England,Maxey,PE6 9EE,High Street,69
nickystephenmarketing.co.uk,United Kingdom,England,Hoby,LE14 3DT,Main St,8
glowtelecom.co.uk,United Kingdom,England,London,NW3 6DN,Finchley Rd,250
mylanderpages.com,United States,California,Walnut Creek,94596,Walnut Creek,2121
innovative-navigation.de,Germany,Baden-Württemberg,Kornwestheim,70806,Leibnizstr,11
burdelaw.com,United States,Pennsylvania,Ardmore,19003,Haverford Rd,2320
smartclip.tv,Germany,Rheinland-Pfalz,Bingen am Rhein,55411,Alfred-Nobel-Straße,5
markengold.de,Germany,Berlin,Berlin,10119,Torstraße,107
zeninvest.de,Germany,Sachsen,Leipzig,04109,Dittrichring, 2
poggemoeller.co,Colombia,Bayern,München,81673,Neumarkter Str.,61
sinclairvans.co.uk,United Kingdom,Wales,Gorseinon,SA4 4DL,Gorseinon Rd,4
stationcars.co.uk,United Kingdom,England,London,SW17 9NA,46-48 Mitcham Rd,46
voodooconsulting.com,United States,Louisiana,New Orleans,70130,Magazine Street,643
manddbirdfarm.com,United States,California,La Jolla,92037,Fay Ave,7744
platformq.com,United States,Massachusetts,Needham Heights,02494,Crescent Road,100
platformq.com,United States,Massachusetts,Needham Heights,02494,Crescent Road,100
fivedegreesconsulting.com,United States,Utah,Salt Lake City,84106,South Salt,3300
div.energy,United States,Ohio,Canton,44718,Belden Village Street,4150
henges.com,United States,Missouri,Earth City,63045,Shoreline Drive,133
nhsforthvalley.com,United Kingdom,Scotland,Bo’ness,EH51 0DH,Hospital Dean Road,
naturesraincoats.com,United Kingdom,England,Nottingham,NG1 4FQ,Shakespeare St,50
williesrestaurants.com,United States,Florida,Tampa,33607,West Cypress St.,4300
cerberusnetworks.co.uk,United Kingdom,England,London,UB6 7LH,Walmgate Rd,9
northgatevehiclehire.co.uk,United Kingdom,England,Darlington,DL1 4PZ,Northgate Vehicle Hire,2024
trederwensprings.co.uk,United Kingdom,Wales,Llansantffraid ED,SY22 6SY,Trederwen Springs,2008
vsda.de,Germany,Hessen,Darmstadt,64285,Auf d. Ludwigshöhe,196
trinityairmedical.com,United States,Arizona,Tempe,85284,W Greentree Dr,1725
cspc.co.uk,United Kingdom,England,Leeds,LS16 5LW,Otley Rd,184
oakleyproperty.com,United Kingdom,England,Brighton,BN1 1YA,North Road Brighton,6
kellerkommando.de,Germany,Bayern,Langenzenn,90579,Karlsbader Straße,12
