Domain,Country,Region,City,Postcode,Road,Road Number
georgebrownphotography.com,United States,Virginia,Alexandria,22308,,
hodgepodgebakeshop.weebly.com,United States,Michigan,Muskegon,49441,,
taillight.com,United States,Texas,Dallas,75201,,
masterrenovationsinc.com,United States,Ohio,Orrville,44667,,
safebasementsinc.com,United States,North Carolina,Charlotte,28272,,
peoplefirstlawyers.com,United States,New Jersey,Mount Laurel,08054,,
ferrellaw.com,United States,Virginia,Clifton,20124,,
pchandy.net,United States,Ohio,Cleveland,44120,,
historicldstours.com,United States,Utah,South Jordan,84095,,
fivedegreesconsulting.com,United States,Utah,Salt Lake City,84106,,
spencercreativegroup.com,United States,New York,New Rochelle,10804,,
magnummobilesv.com,United States,Virginia,Richmond,23225,,
tremco-illbruck.com,United States,New York,Utica,13501,,
eurofighter.com,United States,Colorado,Littleton,80129,,
infinity-reisen.com,United States,Louisiana,Glynn,70736,,
schuberth.com,United States,Ohio,Findlay,45840,,
lisekruegerbarth.com,United States,Oklahoma,Marlow,73055,,
innoactive.io,United States,Georgia,Madison,30650,,
sysy.com,United States,Tennessee,Indian Mound,37079,,
master-vergleich.com,United States,West Virginia,Walker,26180,,
nugzblacky.com,United States,Texas,Mercedes,78570,,
casino-poker-manager.com,United States,Wyoming,Cheyenne,82008,,
atrium2000.com,United States,California,Pasadena,91189,,
vsb.energy,United States,Massachusetts,Palmer,01069,,
novostrat.com,United States,New York,Akron,14001,,
ppro.com,United States,New York,New York,10117,,
postuning.com,United States,Florida,Longwood,32791,,
