Domain,Country,Region,City,Postcode,Road,Road Number
umbrawindowtinting.com,United States,,,,,
embcmonroe.org,United States,North Carolina,Monroe,28112,Maurice,503
caffeygroup.com,United States,,,,,
sk4designs.com,United States,Colorado,Telluride,81435,,
draftingdesign.com,Australia,,,,,
truesdail.com,United States,,,,,
seedsourceag.com,United States,Nebraska,Wayne,68787,,
romebeerfest.com,United States,,,,,
beerock.com,United States,,,,,
cabwhp.org,United States,California,Inglewood,90301,,
saintmlc.com,United States,Ohio,Ashland,44805,,
dillonmusic.com,United States,New Jersey,Woodbridge,07095,Fulton,325
societyfortheblind.org,United States,California,Sacramento,95811,S,1238
perfectsearchinc.com,United States,,,,,
wyandottewinery.com,United States,Ohio,Columbus,43230,,
thespiritofblackjackmountain.com,United States,,,,,
kingdomtel.com,United States,,,,,
triadstage.org,,,,,,
savagecbd.com,United States,,,,,
clubk-9.com,United States,,,97427,N Curtis,97427
katerisyracuse.com,United States,New York,Syracuse,13204,Gifford,432
triplecrownconstruction.com,United States,Maryland,Frederick,21704,Tilco,1525
greyhackle.com,United States,Arizona,Payson,85541,,
wildandwanderful.com,United States,District of Columbia,Washington,20233,,
coastalpaddlecompany.com,United States,,,,,
casepaper.com,United States,Indiana,Osgood,47037,Mamaroneck,500
searchouthomes.com,United States,Idaho,Meridian,83642,S. Jade,1739
richardbrothersfinancial.com,United States,Maine,South Portland,04106,Donald B. Dean,50
paramountlandtitle.com,United States,Tennessee,Knoxville,37923,Sony,8904
villageatfourhills.com,United States,,,,,
aiwoodwork.com,United States,California,Simi Valley,93065,Chain,2355
infometrica.com,United States,,,,,
twinpondsnashua.com,United States,,,,,
oauconsulting.com,United States,,,,,
neutresalon.com,United States,Maryland,Frederick,21701,S Market,101
glacier.chat,United States,Maryland,Annapolis Junction,20701,,
systemadix.com,United States,,,,• 122 East Patrick,7700
your-doctor.org,United States,Louisiana,Glynn,70736,Brayford,5
seniorcareagencyny.com,United States,New York,Levittown,11756,,
plentyconsulting.com,United States,Utah,Park City,84098,Franklin,613
ohnstadlaw.com,United States,North Dakota,Page,58064,West Caledonia,510
superfitfoods.co,Colombia,,,,,
newandblue.com,United States,Washington,Vancouver,98660,,
sonomastarparty.com,United States,District of Columbia,Washington,20340,,
animaledzoocation.com,United States,,,,,
seforensic.com,United States,,,,,
allmakeappliancerepair.com,United States,California,San Francisco,94132,,
305painting.com,United States,,,,,
persianbijar.com,United States,New York,Schenectady,12345,,
medhomeplus.org,United States,,,,,
yuppypuppyboutique.com,United States,Wisconsin,Blair,54616,,
thebestvintageclothing.com,United States,Pennsylvania,Montoursville,17754,,
isberg-nott.com,United States,,,,,
csccpas.com,United States,,,,,
stmatthewmedina.org,United States,Ohio,Medina,44256,N. Broadway,400
georgebrownphotography.com,United States,Virginia,Alexandria,22308,,
atlasuhv.com,United States,Washington,Port Townsend,98368,,
gopremier.biz,United States,Texas,Plano,75074,,
rockvilledwiattorney.com,United States,California,Los Angeles,55581,,
atlanticbeach-nc.com,United States,North Carolina,Atlantic Beach,28512,,
kiddsmith.com,United States,South Carolina,Boiling Springs,29316,Riviera,117
sheriford.com,United States,,,,,
seahawkmuffler.com,United States,,,,,
dakotamanagement.com,United States,,,,,
jackiescleaning.com,United States,Maine,Lewiston,04240,,
purcellvilledental.com,United States,Virginia,Purcellville,20132,East Main,609
fcllp.com,United States,Connecticut,New Haven,06510,Lexington,570
artofthelakes.org,United States,Minnesota,Battle Lake,56515,Main,112
songfest.us,United States,Ohio,Cincinnati,45236,,
vahcbsa.org,United States,Virginia,Staunton,24401,Greenville,617
ayalaboring.com,United States,,,,,
b-wise.com,United States,,,,,
bentsoninsurance.net,,,,,,
starkconsult.com,United States,,,,,
namastereiki.com,United States,,,,,
hugsforhealing.org,United States,Texas,Ross,76684,,
allenvillagejewelers.com,United States,Texas,Allen,75002,,
ipanex.com,United States,Pennsylvania,Philadelphia,19134,,
sboji.com,United States,,,,,
panniergraphics.com,United States,Pennsylvania,Gibsonia,15044,Pannier Graphics | 345 Oak,2021
unitedairconditioning.com,United States,Florida,Largo,33773,,
bbbiking.com,United States,,,,,
csuoberlin.com,United States,Ohio,Oberlin,44074,,
embracecomputers.com,United States,,,,,
events2atee.com,United States,,,,,
roensalvage.com,United States,Wisconsin,Sturgeon Bay,54235,,
microcapmarketplace.com,United States,District of Columbia,Washington,20006,Pennsylvania,2020
marbenbland.com,United States,,,,,
whitehorsecustomz.com,United States,,,,,
onefinedayproductions.com,United States,,,,,
hennejewelers.com,United States,Pennsylvania,Pittsburgh,15232,,
hscpoly.com,United States,New York,Akron,14001,,
appwinit.com,United States,New York,New York,10001,,
howardinsuranceinc.com,United States,Indiana,Hamilton,46742,E. Bellefountaine,3925
millerindustrial.com,United States,Illinois,Elk Grove Village,60007,,
melaniericcardi.com,United States,,,,,
achieveservices.net,United States,Georgia,Atlanta,30339,Parkwood,1000
billproctorandassociates.com,United States,,,,,
habeggercorp.com,United States,New York,Springfield Gardens,11413,Enterprise Park,11413
pridescholarships.com,United States,California,Patterson,95363,,
thegrindcoffeebar.com,United States,Florida,Tampa,33626,West Linebaugh,9532
aaronsantosdentistry.com,United States,New York,Perkinsville,14529,,
itconductor.com,United States,California,Cupertino,95014,,
heidimitchellgolf.com,United States,Georgia,Snellville,30039,,
teamsunbuilders.com,United States,California,Rancho Mirage,92270,,
acaletics.net,,,,,,
fresnogreekfest.com,United States,California,Fresno,93703,,
trinityrentals.com,United States,,,,,
lifebalancesports.com,United States,,,,,
mid-america.com,United States,Minnesota,Minneapolis,55413,,
liftsouth.com,United States,New York,Schuylerville,12871,,
blackriverpallet.com,United States,Michigan,Holland,49424,,
firstchoicemech.com,United States,,,,,
easolutions.net,,,,,,
onlinemarketingmuscle.com,United States,South Carolina,Greenville,29607,Millport,128
raymondkeyandsons.com,United States,Virginia,Chesapeake,23325,Tanglewood,4014
goldridgecompanies.com,United States,Wisconsin,Mondovi,54755,Pinnacle,310
luxuryhomecouncil.com,United States,Oregon,Roseburg,97470,,
plainsmanswitching.com,United States,,,,,
ageinplaceofnewengland.com,United States,,,,,
sellersconstruction.net,United States,Georgia,Gordon,31031,,
rapidriverloggingcamp.com,United States,Minnesota,Park Rapids,56470,,
enidmad.org,United States,Oklahoma,Enid,73701,,
americanconcretetrucking.com,United States,Texas,Irving,75061,,
able-plumbing.net,,,,,,
weddingphoto-video.com,United States,,,,,
ibex.us.com,United States,Virginia,Chantilly,20151,Brookfield Corporate,4451
washingtonareafuelfund.org,,,,,,
chcseia.com,United States,,,,,
zaplingstudios.com,United States,,,,,
gipreit.com,United States,Florida,Tampa,33602,,
takearax.com,United States,New York,Schenectady,12345,,
floridaorchestra.org,United States,Florida,Saint Petersburg,33701,2nd,244
cityvisions.com,United States,California,Richmond,94804,Shasta,1822
luckyprints.com,United States,Illinois,Chicago,60612,,
anikadenise.com,United States,,,,,
bwglaw.net,,,,,,
dbfcc.com,United States,New York,Hewlett,11557,,
devact.com,United States,North Carolina,Charlotte,28207,appellate cases in the North Carolina,75
wickedislandbakery.com,United States,Massachusetts,Nantucket,02554,,
tmgi.net,United States,Wisconsin,Pound,54161,Westlake,46169
josephebberweinart.com,United States,,,,,
stylemultimedia.com,United States,,,,,
obgyngroup.com,United States,,,,,
royersford.com,United States,Pennsylvania,Royersford,19468,Bolt Pillow Block,4
selnertreeshrubcare.com,United States,Baden-Württemberg,Korb,77851,2017 Ashwaubenon,2017
barmarketingbasics.com,United States,Pennsylvania,Marsteller,15760,,
gbox.com,United States,,,,,
maguirechevroletcadillac.com,United States,New York,Ithaca,14850,,
rokkan.com,United States,,,,,
endries.com,United States,,,,,
stmindustries.com,United States,Florida,Tampa,33624,,
sczc.org,United States,California,Santa Cruz,95060,Practicing The,2023
fott.org,United States,Florida,Fort Lauderdale,33317,SW 54,1300
msland.com,United States,,,,,
drpierrerousse.net,United States,Florida,Port Orange,32129,Brady,1000
jjastorsrestaurant.com,United States,,,,,
foxbridge.com,United States,,,,,
andersrice.com,United States,North Carolina,Asheville,28806,Patton,1428
albeeappliances.com,United States,,,,,
blackbookmarketresearch.com,United States,Florida,Tampa,33607,North Rocky Point,3030
acflagandbanner.com,United States,Colorado,Littleton,80127,,
sjcadets.org,United States,Connecticut,Trumbull,06611,Completes Second Annual 'Socktober' Sock,26
biblebee.org,United States,,,,,
dr-todd.com,United States,,,,,
securecdp.com,United States,,,,,
suralink.com,United States,Utah,Salt Lake City,84111,Exchange,10
dairyagendatoday.com,United States,Ohio,Wooster,44691,,
wayco.com,United States,,,,,
clovispointsolutions.com,United States,Virginia,Reston,20191,Lake Chapel,11169
ksafe.com,United States,Louisiana,Baker,70704,Request An Estimate,9940
rossmoncure.com,United States,Florida,Pensacola,32516,North Washington,726
youthchallengesports.com,United States,Ohio,Westlake,44145,Sharon,800
eyewitnessforlife.org,United States,Wisconsin,Milwaukee,53226,,
thecharlescompany.com,United States,Arizona,Chandler,85248,,
30aproperties4sale.com,United States,,,,,
alwaysmovingandrelocation.org,United States,Colorado,Aurora,80011,,
mindsmack.com,United States,,,,,
indilab.com,United States,New York,West Edmeston,13485,,
brmins.com,United States,,,,,
juiceshop.com,United States,California,San Francisco,94102,Octavia,432
odhlegal.com,United States,Massachusetts,Scituate,02066,,
ccaltd.com,United States,Illinois,Chicago,60607,West Van Buren,600
hodgepodgebakeshop.weebly.com,United States,,,,,
crossroadsretreat.org,United States,Texas,Caldwell,77836,,
garagedoorrepair-sierramadre.com,United States,California,Sierra Madre,91024,,
hinoofcolumbia.com,United States,South Carolina,Columbia,29212,Parkridge,120
centurycontractors.net,,,,,,
militiahillsecurity.com,United States,Pennsylvania,Conshohocken,19428,Cedar Grove,110
summitdebate.com,United States,Florida,Fort Lauderdale,33317,,
otsegocd.org,United States,Michigan,Gaylord,49735,,
jonesmachine.com,United States,Nevada,Boulder City,89005,,
cherryridgeconstruction.com,United States,Iowa,Council Bluffs,51501,,
gandwengineering.com,United States,Missouri,Maryland Heights,63043,Weldon,138
goleadingit.com,United States,Mississippi,Jackson,39284,,
lotussalonny.com,United States,,,,,
athensgop.com,United States,Georgia,Athens,30603,Old Epps Bridge,236
branchcolonialhouse.com,United States,,,,,
tacticalmuscle.com,United States,Texas,Garland,75041,,
bridge.legal,United States,Washington,Seattle,98121,Lenora,300
holmesandturner.com,United States,,,,,
hamiltonroofingandacoustical.com,United States,,,,,
lnrothberg.com,United States,New Jersey,Middlesex,08846,Cedar,550
colts.com,United States,Indiana,Indianapolis,46225,,
deloach.com,United States,Alaska,Homer,99603,,
speedy-pak.com,United States,South Carolina,Columbia,29203,Blue Ridge,700
forestrylaw.com,United States,New York,Buffalo,14202,,
airspaceconsulting.com,United States,California,Carlsbad,92008,Palomar Airport,2100
individualbizsolutions.com,United States,,,,,
distance-educator.com,United States,Ohio,Bellbrook,45305,Bledsoe,1666
casaallegra.org,United States,California,San Rafael,94903,,
christsmission.org,United States,Illinois,Manhattan,60442,S. Cedar,22811
sussexanimalclinic.com,United States,Wisconsin,Sussex,53089,,
monsterdisplays.com,United States,,,,,
pinetreeseafood.com,United States,Maine,Scarborough,04074,US,655
frenchwide.com,United States,,,,,
isell30a.com,United States,Florida,Santa Rosa Beach,32459,,
tpcsecurity.com,United States,Kansas,Overland Park,66212,,
ehstech.com,United States,New York,Akron,14001,,
emilyseventsaz.com,United States,Arizona,Scottsdale,85260,,
cybersofttechnologies.com,United States,,,,,
promptcaremd.com,United States,,,,,
planetbids.com,United States,,,,,
studentsuccess.co,United States,District of Columbia,Washington,20245,,
kingkream.com,United States,California,Chula Vista,91911,,
argocontact.com,United States,Georgia,West Point,31833,O.G. Skinner,1791
specialtybolt.com,United States,Florida,Apalachicola,32320,,
grablerealestate.com,United States,Texas,Fort Worth,76107,,
tsaworld.com,United States,Georgia,Norcross,30071,,
enhancedlandscape.com,United States,North Carolina,Ivanhoe,28447,Witherspoon,28447
hypnosistrainingnewyork.org,United States,New York,New York,10001,,
jobmatic.com,United States,New York,Schenectady,12345,Sharks and Barracuda,2024
westcoastseafood.com,United States,California,Simi Valley,93065,,
kaleabay.com,United States,Florida,Naples,34110,,
martinselfstorage.com,United States,,,,,
corpimprints.com,United States,,,,,
treehill.org,United States,Florida,Jacksonville,32211,Lone Star,7152
cannabis-seed.us,United States,,,,,
heavenlysunshine.com,United States,Mississippi,Southaven,38671,Southview,9170
pure111.com,United States,Illinois,Fairview Heights,62208,Frank Scott,391
mbanj.com,United States,New Jersey,Egg Harbor Township,08234,,
willowtool.com,United States,Ohio,Strongsville,44149,Foltz Industrial,15110
tatankastone.com,United States,Nebraska,Omaha,68138,F,9988
bayareaturf.net,United States,California,Burlingame,94010,Nissen,2310
pakwanrestaurant.com,United States,West Virginia,Red House,25168,,
advnetsol.com,United States,,,,,
dynamichealthcarolinas.com,United States,North Carolina,Charlotte,28217,South,4705
bordolay.com,United States,Kentucky,Ft Mitchell,41017,Florin Perkins,648
decorativeartsbyjep.com,United States,,,,,
ncc.us,United States,Illinois,Oak Brook,60523,Commerce,815
southernsoulstudio.com,United States,,,,,
have2020.com,United States,Indiana,Jeffersonville,47130,West 14th,302
tricountymustangclub.com,United States,California,Oxnard,93031,,
tristatecontainer.com,United States,Pennsylvania,Bethlehem,18020,,
naceyes.com,United States,Texas,Nacogdoches,75965,N. University,3208
sweetbyholly.com,United States,,,,,
manudyn.com,United States,New York,Mamaroneck,10543,,
madmikeandfriends.com,United States,New York,Poughkeepsie,12603,,
postermuseum.com,United States,New York,New York,10007,,
resortsltd.com,United States,New Jersey,Egg Harbor Township,08234,,
thedevoregroup.com,United States,Pennsylvania,Fairview,16415,Old Ridge,7101
wargoenterprises.com,United States,,,,,
gunsafes.com,United States,Texas,Carrollton,75011,,
customrebuiltcarbs.com,United States,New Jersey,Middlesex,08846,,
gardenplaincoop.com,United States,Kansas,Cheney,67025,,
wisr.edu,United States,California,Berkeley,94707,,
milwaukee-montessori.org,,,,,,
awrestorations.com,United States,,,,,
tripeek.com,United States,California,Escondido,92033,Mountain View,12
scparanormal.com,United States,,,,,
dallasprowebdesigners.com,United States,New York,Whitehall,12887,,
racecarshocks.com,United States,,,,,
northparkpres.org,United States,Texas,Dallas,75231,,
a-baldoverhead.com,United States,Texas,Kingwood,77345,,
lgsbythecreek.com,United States,,,,,
sterlingridingacademy.com,United States,California,Woodland,95776,County,22444
jtownbible.org,,,,,,
spifunds.com,United States,New Jersey,Summit,07901,Maple,47
rybergconstruction.net,United States,Alabama,Auburn,36830,Bibb,912
channell.com,United States,Texas,Rockwall,75087,,
terradynecountryclub.com,United States,Kansas,Andover,67002,Terradyne,1400
bestnapleshomesearch.com,United States,Florida,Naples,34109,,
gardenscapetransport.com,United States,Pennsylvania,Eau Claire,16030,,
rawhidedistributors.com,United States,,,,,
adgcreative.net,United States,Maryland,Columbia,21046,,
jandrcustomwalls.com,United States,California,Fullerton,92832,,
wildlifeart.org,United States,Wyoming,Jackson,83001,,
johnwhansen.com,United States,,,,,
tshirtconcepts.net,United States,,,,,
kapitalelectric.com,United States,Illinois,Bensenville,60106,,
taillight.com,United States,Texas,Dallas,75201,N St Paul,750
tstventures.com,United States,,,,,
restaurant-roswellga.com,United States,,,,,
njng.com,United States,Indiana,Jeffersonville,47130,Missouri,650
houma-rentals.com,United States,,,,,
justaminutellc.com,United States,,,,,
ekeepersystems.com,United States,Indiana,Muncie,47307,,
crownpaintinginc.com,United States,Nevada,Reno,89502,Galaxy,641
platformq.com,United States,Massachusetts,Needham Heights,02494,Crescent,100
accredited-appraisal.com,United States,North Carolina,Raleigh,27607,E. Jones,109
xtremewirelessnsyracuse.com,United States,,,,,
davetyler.net,,,,,,
jornadaogia.com,United States,,,,,
mattressplus.tv,United States,Louisiana,Ruston,71270,Youree,3964
winehausfw.com,United States,Texas,Fort Worth,76110,Park,1628
vamonosmoving.com,United States,,,,,
jetinc.net,United States,Iowa,Cedar Rapids,52402,Park,1241
barbarabartlein.com,United States,Wisconsin,Milwaukee,53207,East Estes,2021
flippincritters.com,United States,,,,,
motion-labs.com,United States,Chihuahua,Lerdo de Tejada,31883,Corydon,31883
williesrestaurants.com,United States,Texas,Houston,77070,,
intersectionmusic.org,United States,Tennessee,Nashville,37209,River,7007
bellastonecare.com,United States,,,,,
fbassoc.com,United States,New York,New York,10003,East 14th,111
ynotitalian.com,United States,,,,,
vitalizechiropractic.com,United States,Illinois,Belleville,62226,,
cbssquaredinc.com,United States,Minnesota,Minneapolis,55413,First,615
mobilecloudlab.com,United States,Mississippi,Magee,39111,,
shearfashions.com,United States,,,,,
stgcom.com,United States,Ohio,Columbiana,44408,Wardingley,1401
bopatelectric.com,United States,Maryland,Frederick,21701,B5 Rumsey,9160
cincinnatifleetcare.com,United States,Ohio,Cincinnati,45246,,
sorrentoeast.org,United States,Florida,Nokomis,34274,,
dmaa.net,United States,Virginia,Arlington,22203,,
textbooksolutions.com,United States,Texas,Austin,78718,,
sherrylimd.com,United States,,,,,
apieceofcake11.com,United States,New Jersey,Cape May Court House,08210,"U.S. 9, Cape May",709
portcitygraphics.com,United States,Maine,Gorham,04038,Main,664
libboo.com,United States,,,,,
lascruxes.com,United States,,,,,
icscomplete.com,United States,Massachusetts,Raynham,02767,Fair Lakes,6007
rememberthosemoments.com,United States,Illinois,Chicago,60630,,
harnesswealth.com,United States,New York,New York,10013,,
entosdesign.com,United States,Texas,Dallas,75240,Lyndon B Johnson,5400
thecolombygroup.com,United States,California,Marina Del Rey,90292,Glencoe,4115
seniorvillagerehab.com,United States,Louisiana,Opelousas,70570,Harry Guilbeau,315
mansionssouth.com,United States,,,,,
adastra-films.com,United States,Connecticut,Hartford,06150,,
pearlleather.com,United States,Pennsylvania,Enola,17025,,
merrickgroupinc.com,United States,North Carolina,Denver,28037,Unico,100
adsdry.com,United States,New York,Johnsonville,12094,,
dillinghammurphy.com,United States,California,San Francisco,94104,Sansome,155
bodyjewelrycompany.com,United States,,,,,
shopcapitalhatters.com,United States,Texas,Stephenville,76401,,
mjobriendesign.com,United States,,,,,
scottyshubcaps.com,United States,Pennsylvania,Oakland Mills,17076,,
landco-inc.com,United States,,,,,
fm99.com,United States,Virginia,Chesapeake,23320,Greenbrier,870
frontdoorstl.com,United States,,,,,
rosesacrossamerica.com,United States,,,,,
garydawsonlaw.com,United States,Tennessee,Knoxville,37902,and,140
c-s-stables.com,United States,Pennsylvania,Equinunk,18417,Hancock,2361
kimberlybrockbooks.com,United States,North Carolina,Stovall,27582,Norcross,115
eatrightdelaware.org,United States,Delaware,Newark,19714,,
bestwebhosting.com,United States,Arizona,Phoenix,85064,,
masterrenovationsinc.com,United States,,,,,
patiocomforts.com,United States,Kansas,Bluff City,67018,,
elogiq.com,United States,Pennsylvania,Wayne,19087,,
ossininglibrary.org,United States,New York,Ossining,10562,Croton,53
inetmotors.com,United States,Texas,Dallas,75234,Villa Creek,11522695
dabba4u.com,United States,,,,,
urbanacres.com,United States,Iowa,Coralville,52241,9th,2017
perryridgelandfill.com,United States,Illinois,Du Quoin,62832,Sacred Heart,6305
fountainhillsapartments.com,United States,Wisconsin,Racine,53406,miles east of,2
portertwp.org,United States,Ohio,Sunbury,43074,,
americansurvey.com,United States,,,,,
thecreditpeople.com,United States,Utah,Midvale,84047,S Union Park,6975
matrixdesigncompanies.com,United States,,,,,
piranhablonde.com,United States,Washington,Seattle,98117,3rd,7005
aimnorth.com,United States,,,,,
boccarossainsurance.com,United States,Connecticut,Milford,06460,,
sundowninc.org,United States,,,,,
isetoday.com,United States,,,,,
janestreetproductions.com,United States,,,,,
withouraloha.com,United States,Hawaii,Honolulu,96815,,
abmechanical.com,United States,California,Livermore,94550,,
salvometalworks.com,United States,Illinois,Naperville,60563,,
amsgenetics.com,United States,,,,,
brycsoccer.com,United States,New Hampshire,Woodsville,03785,,
copyarmy.com,United States,,,,,
lombardglobal.com,United States,,,,,
genero.us,United States,,,,,
webcointeractive.com,United States,,,,,
violenceinterventionprogram.org,United States,California,Los Angeles,90031,Griffin,1721
millspacktrips.com,United States,,,,,
thesophiacenterforspirituality.org,United States,New York,Binghamton,13905,Main,30
myrollingoaksapartments.com,United States,,,,,
sysbytc.com,United States,,,,,
boyleinsures.com,United States,Maryland,Bel Air,21014,,
stanleyreid.com,United States,Florida,Tampa,33607,Depot,254
scottklareichdds.com,United States,,,,,
b29investments.com,United States,New York,Ransomville,14131,,
amaurisilva.com,United States,,,,,
mgtreeservices.com,United States,Texas,Irving,75015,,
hullstrategies.com,United States,,,,,
sacredbrewing.com,United States,,,,,
jdsclubs.com,United States,Ohio,Canton,44707,,
jenbeckeracupuncture.com,United States,New York,New York,10012,,
martialartshealing.com,United States,,,,,
techsea.com,United States,,,,,
hebrewfreeloandc.org,United States,Maryland,Silver Spring,20915,,
azcrystal.com,United States,,,,,
ypmphotography.com,United States,North Carolina,Charlotte,28277,,
burnsidebrewco.com,United States,,,,,
creative-earthscapes.com,United States,Ohio,Columbus,43213,,
actionfigurefit.com,United States,,,,,
flit.co,United States,Arizona,Tempe,85284,E. GoDaddy,2155
uniquelibrary.com,United States,California,San Diego,92175,E. Maple,119
newdaychurchnetwork.org,,,,,,
crystalcoastnc.org,United States,North Carolina,Morehead City,28557,Arendell,3409
sarahssilks.com,United States,California,Graton,95444,,
classicgardens.com,United States,Alabama,Birmingham,35215,Carson,1855
nemesisinteractive.com,United States,,,,,
seanzmortgage.com,United States,Missouri,Saint Louis,63139,,
suresigngraphics.com,United States,,,,,
soteria.io,United States,South Carolina,North Charleston,29405,,
hodgsonsinc.com,United States,,,,,
catapultcreativemedia.com,United States,Florida,Brooksville,34604,,
lssa2320.org,United States,New York,New York,10018,,
drbangert.com,United States,,,,,
stadiumchiropractic.com,United States,California,Orange,92868,,
smokyhillmuseum.org,United States,Kansas,Salina,67401,West Iron,211
clvillage.net,United States,,,,,
backefinancial.com,United States,North Carolina,Swannanoa,28778,Whitson,204
steelspan.com,United States,New York,Hicksville,11815,,
socoinstitute.org,United States,California,San Diego,92123,Aero,8825
creartiveinc.com,United States,South Carolina,Myrtle Beach,29578,,
jonesgrove.com,United States,North Carolina,Charlotte,28209,Mockingbird,1515
johanningsinc.com,United States,Ohio,Louisville,44641,,
pproa.org,United States,Texas,Amarillo,79106,,
daybreakoutsourcing.com,United States,,,,,
sacredspacemiami.com,United States,Florida,Miami,33137,NE 24th,105
whitehallcamp.org,United States,Pennsylvania,Emlenton,16373,,
tjsfabrics.com,United States,,,,,
rbroadconcrete.com,United States,New York,Lancaster,14086,Jamison,1271
wingchungainesville.com,United States,,,,,
thelargeformatstore.com,United States,New York,Schenectady,12345,,
aprexec.com,United States,,,,,
truesmilesmiami.com,United States,Florida,Miami,33156,,
sealwatch.com,United States,,,,Crowell,174
safebasementsinc.com,United States,North Carolina,Charlotte,28272,,
urbanironcraft.com,United States,,,,,
genebellassociates.com,United States,,,,,
beemlaw.com,United States,Texas,Dallas,75201,"Panelist, “Meaning and Effect of Supreme",2003
shorecorporation.com,United States,Pennsylvania,Ambridge,15003,,
avalonlimos.com,United States,,,,,
daytonamitsu.com,United States,,,,,
lamprinostv.com,United States,,,,,
centerlinelogistics.com,United States,Washington,Seattle,98134,SW Spokane,910
ctfamilypt.com,United States,Connecticut,Westport,06880,Post,735
wichitaacademyofpharmacists.org,United States,Kansas,Wichita,67209,,
dreng.com,United States,New York,Keeseville,12911,Desoto,46475
ohpsych.org,,,,,,
servemenow.org,,,,,,
primafacie.net,United States,Oregon,Salem,97304,,
peoplefirstlawyers.com,United States,New Jersey,Mount Laurel,08054,Commerce,16000
seachangeprogram.org,,,,,,
watershedmaterials.com,United States,,,,,
billysingh.com,United States,New York,New Hyde Park,11040,Union,1300
ecocolorssalon.com,United States,,,,,
arrowgiftshop.com,United States,Wisconsin,Eagle River,54521,,
barrierlining.com,United States,Illinois,Deerfield,60015,Constance,640
taabc.org,United States,California,Santa Ana,92705,,
agoraproductions.org,United States,California,Los Angeles,90045,,
concrete-canvas.net,,,,,,
pswrehab.com,United States,California,Porterville,93257,West Poplar,194
campwalden-ny.com,United States,,,,,
airstreamlosangeles.com,United States,California,San Gabriel,91776,E Las Tunas,1212
tpabenchmark.com,United States,,,,,
usourceenergy.com,United States,New Hampshire,Hampton,03842,Liberty,1
alldolly.com,United States,,,,,
toroslawnmower.com,United States,,,,,
smartwarehousing.com,United States,Kansas,Overland Park,66204,,
pointofdata.com,United States,Washington,Monroe,98272,,
paykings.com,United States,Florida,Saint Petersburg,33701,,
fatandjuicy.com,United States,New York,Hartwick,13348,,
ces-group.net,United States,North Carolina,Charlotte,28273,Whitehall Park,3525
mulchandsod.com,United States,Florida,Apopka,32703,,
barrywilliamsplumbing.com,United States,,,,,
commongroundchildcare.org,United States,Virginia,Reston,20190,Wainwright,1700
binghamtoncustomtshirts.com,United States,,,,,
thomcomm.com,United States,,,,,
michellebrumley.com,United States,,,,,
poulsbofamilydentistry.com,United States,Pennsylvania,Philadelphia,19255,,
modelgroup.net,United States,Ohio,Cincinnati,45202,,
ad-west.com,United States,Washington,Bellevue,98004,,
remingtons.pro,,,,,,
camelot-enterprises.com,United States,Tennessee,Nashville,37211,,
breslaucapital.com,United States,,,,,
fundakrines.com,United States,,,,,
monkeybargym.com,United States,,,,,
dawnequipment.us,United States,Illinois,Sycamore,60178,,
alphapurewater.com,United States,,,,,
scenicviewcc.com,United States,Wisconsin,Slinger,53086,Club,4415
ortonceramic.com,United States,Ohio,Westerville,43082,Old 3C,6991
happystagger.com,United States,,,,,
bcpas.com,United States,Tennessee,Columbia,38401,Ward,215
dontrecordsmusicgroup.com,United States,,,,,
abetterbugman.com,United States,Florida,Fort Myers,33908,Emily,7212
heavensbestofbirmingham.com,United States,,,,,
subaruofrichmond.com,United States,,,,,
alexanderdeiser.com,United States,,,,,
younits.com,United States,,,,,
txinsight.com,United States,California,Santa Fe Springs,90671,1100 W. 49th,149347
r-d-p-consulting.com,United States,,,,,
optimumcarehomecare.com,United States,Virginia,Fredericksburg,22401,Fettler Park,3683
acmg.net,United States,Massachusetts,North Adams,01247,,
adkfragrancefarm.com,United States,New York,Potsdam,13676,,
aperations.com,United States,,,,,
cmcregaff.com,United States,,,,,
banknsb.com,United States,,,,,
solidrenovations.com,United States,South Carolina,Charleston,29403,King,696
sardisbaptist.com,United States,North Carolina,Indian Trail,28079,Unionville-Indian Trail Rd WIndian,3602
yanceyworks.com,United States,California,Roseville,95678,,
bocahomecareservices.com,United States,Florida,Boca Raton,33431,,
excellandscapemgmt.com,United States,,,,,
masterstch.com,United States,,,,,
womenwhocode.com,United States,Virginia,Reston,20193,- Security,2022
bigideas.com,United States,Minnesota,Saint Paul,55113,Oakcrest,1975
iqfitness.net,United States,Georgia,Atlanta,30309,,
4parkwayhonda.com,United States,,,,,
cjmcbride.org,United States,Alabama,Foley,36536,,
aatoppers.com,United States,Colorado,Littleton,80121,,
magnetpi.com,United States,,,,,
kansascyclist.com,United States,Kansas,Gardner,66030,Biking Across Kansas 2018,2018
trinityairmedical.com,United States,Arizona,Tempe,85284,W Auto,1437
tcwrcmoldremoval.com,United States,,,,,
tellusoperating.com,United States,,,,,
alexanderfamilybuickgmc.com,United States,,,,,
santasophia.org,,,,,,
thepeopleofpokemongo.com,United States,Maine,Brunswick,04011,6 Bay Bridge,0309
itpro.tv,United States,Florida,Gainesville,32607,,
premierdentalcareofbuckhead.com,United States,Georgia,Atlanta,30305,Piedmont,3580
lexmundi.com,United States,Texas,Houston,77027,,
hamlinlakeboatrentals.com,United States,,,,,
adventures-in-learning.org,,,,59876,,
bernsteinsfashions.com,United States,,,,,
danashouse.org,United States,Arkansas,De Witt,72042,,
thundermountainharley.com,United States,Colorado,Loveland,80538,South and Crossroads,25
tarynreed.com,United States,,,,,
marysvillelib.org,United States,Ohio,Marysville,43040,S. Plum,231
lnlconstruction.com,United States,Washington,Zillah,98953,,
goodshepherdofcashiers.com,United States,North Carolina,Cashiers,28717,,
upstatetelecom.com,United States,New York,Monroe,10950,,
aurasalonnashville.com,United States,,,,,
bitcoinzusa.com,United States,,,,,
zenogroupinvestments.com,United States,,,,,
multilayer.com,United States,,,,,
roundtheworldsurplus.com,United States,,,,,
cacustomaquariums.com,United States,,,,,
oldehomestead.com,United States,,,,,
kauffmangas.com,United States,Pennsylvania,Atglen,19310,,
stitchmine.com,United States,Illinois,Glenview,60025,Regency,4344
stationinnpa.com,United States,Pennsylvania,Cresson,16630,Front,827
newportbutane.com,United States,,,,,
tulsadoorman.com,United States,,,,,
westfloproducts.com,United States,,,,,
erling.com,United States,Texas,Hutto,78634,Benelli,225
sprucemountaininn.com,United States,Vermont,Plainfield,05667,Towne,155
abc-assembly.com,United States,Texas,Houston,77040,Empire Central,7230
statmedical.net,,,,,,
outsourcingnetwork.com,United States,,,,,
tbtyler.com,United States,Texas,Tyler,75709,,
championrescuetools.com,United States,,,,,
texasafterviolence.org,United States,Texas,Austin,78722,,
tenderle.org,United States,Ohio,Oxford,45056,,
applepiememories.com,United States,,,,,
ferrellaw.com,United States,Virginia,Clifton,20124,,
frclothingandsupply.com,United States,Colorado,Platteville,80651,,
thevetcenter.com,United States,Florida,Gainesville,32606,,
itsabouttimeboutique.com,United States,Georgia,Cartersville,30120,,
pchandy.net,United States,Ohio,Cleveland,44120,Lee,2000
selectcore.com,United States,,,,,
thehuntsvilledentist.com,United States,,,,,
quantumhelicopters.com,United States,Arizona,Chandler,85286,,
horizonconvention.com,United States,,,,,
paisansrest.com,United States,Wisconsin,Madison,53703,West Wilson,131
wvcrossroads.com,United States,West Virginia,Morgantown,26505,,
ourbellinis.com,United States,Alabama,Birmingham,35242,,
thebluapple.com,United States,Utah,Woods Cross,84087,,
poly6.com,United States,Massachusetts,Burlington,01803,,
cityave.org,United States,Pennsylvania,Bala Cynwyd,19004,,
reshapelifesciences.com,United States,California,Irvine,92618,Technology,18
kleinwoodvision.com,United States,Texas,Spring,77379,Louetta,7312
thewokdallastx.com,United States,,,,,
terraliftinternational.com,United States,,,,,
changemanagementreview.com,United States,North Carolina,Concord,28027,,
cphconsultants.com,United States,Washington,Wenatchee,98801,,
ultimatemuskyguide.com,United States,Wisconsin,Antigo,54409,,
thekeirweimerteam.com,United States,New York,Lake Placid,12946,Park,430
bgcworcester.org,United States,Massachusetts,Worcester,01610,Boys & Girls Club,65
tudorpickering.com,United States,,,,,
kenleigh-acres.com,United States,Oregon,Dexter,97431,,
viddoctor.com,United States,,,,,
oncuestaging.com,United States,New Jersey,Sayreville,08872,Hartle,600
westbrosinc.com,United States,Utah,Salt Lake City,84123,,
l4sg.com,United States,,,,,
oakandfort.com,United States,,,,,
tagatuci.com,United States,,,,,
newhomemedia.net,United States,Virginia,Fredericksburg,22405,Sage,39
fantasyphotography.com,United States,Florida,Naples,34112,,
econic.co,Colombia,,,,,
northquabbinforestry.com,United States,,,,,
chasepropertyllc.com,United States,,,,,
demaeng.com,United States,New York,New York,10020,Big Bend,10020
jamessurdam.com,United States,,,,,
kellyandstonearchitects.com,United States,Colorado,Steamboat Springs,80487,Brockway,11209
idn-inc.com,United States,Arizona,Tucson,85712,,
pruitt-igoebeesanctuary.com,United States,Missouri,Saint Louis,63118,,
greenterrahomes.com,United States,,,,,
trivan.com,United States,Washington,Ferndale,98248,W Smith,1385
birminghambuilder.com,United States,Alabama,Birmingham,35210,Grantswood,5000
cliosoft.com,United States,,,,,
knowlabs.co,Colombia,,,,,
petiteflowerssanantonio.com,United States,,,,,
fccmwc.org,United States,New York,Mastic,11950,E. Reno,11950
greenwave.us.com,United States,California,Rowland Heights,91748,S. Azusa,895
interimlender.com,United States,,,,,
blueoceanvillas.com,United States,Missouri,Gravois Mills,65037,Saratoga,234
oakhousefilms.com,United States,,,,,
medicalwhite.com,United States,,,,,
sage-research.com,United States,Illinois,Pleasant Hill,62366,,
dellsducks.com,United States,Wisconsin,Wisconsin Dells,53965,Wisconsin Dells,1550
floridacommercialteam.com,United States,Florida,Miami,33143,Red,7220
drdansiegel.com,United States,California,Big Sur,93920,"Location: Esalen Instittue, 55000",28
grabitinc.com,United States,,,,,
chisholmarchitects.com,United States,Florida,Miami,33126,,
jillkonrath.com,United States,,,,,
novellasrecycling.com,United States,Connecticut,Danbury,06810,Thorpe,5
southboundandcompany.com,United States,California,Indio,92203,and Ridge View,243
miamifloridahomesecurity.com,United States,Florida,Miami,33166,,
elchicanomusic.com,United States,Texas,Carrollton,75010,,
trifectamedspanyc.com,United States,New York,New York,10022,E 60th,30
santaclarajumpers.com,United States,California,Santa Clara,95050,,
lchealth.org,United States,Massachusetts,Lowell,01852,Jackson,161
mimovers.org,United States,Michigan,Lansing,48912,,
kidderroofing.com,United States,,,,,
hancock.k12.ga.us,United States,Georgia,Sparta,31087,,
lrgmarketing.com,United States,New York,Nyack,10960,Burd,48
apicaucus.org,United States,California,San Francisco,94109,Alice B. Toklas,151
lovethypetbklyn.com,United States,New York,Brooklyn,11231,Union,164
mscenteroftidewater.com,United States,Virginia,Virginia Beach,23454,Kempsville,6161
exquisitecarsale.com,United States,,,,,
pripo.com,United States,North Carolina,Asheville,28801,,
andonelect.com,United States,New Jersey,Manahawkin,08050,,
toplinetireandauto.com,United States,Michigan,Fraser,48026,Commercial,3371
slavkin.net,United States,,,,,
diversitycrna.org,,,,,,
moline.com,United States,Minnesota,Duluth,55807,South Central,114
verasoft.com,United States,,,,,
laceyoga.com,United States,,,,,
glenellynfamilymusicschool.com,United States,,,,,
arizonainkstudios.com,United States,,,,,
xraydocs.com,United States,,,,,
inter-tax.net,United States,,,,,
ranchsystems.com,United States,,,,,
componentsignage.com,United States,North Carolina,High Point,27262,,
weberortho.com,United States,Illinois,Wheaton,60187,,
folsomshope.org,United States,California,Folsom,95630,Blue Ravine,1100
victoralanphoto.com,United States,,,,,
dulichgiaremag.com,United States,District of Columbia,Washington,20212,,
realdealsnow.com,United States,North Carolina,Lenoir,28645,,
precisioninternational.com,United States,North Carolina,Asheville,28806,Sardis,23
instituteod.com,United States,Florida,Fort Myers,33919,,
rbhmedia.com,United States,New York,Dobbs Ferry,10522,12 Hatch,3539
ktmtalk.com,United States,Kentucky,Hagerhill,41222,,
dentremovalcedarfalls.com,United States,Iowa,Cedar Falls,50613,Fast,3620
ccslableaks.com,United States,Castilla - La Mancha,Belmontejo,16779,,
schoolofcosmeticarts.com,United States,Delaware,Newark,19718,Canal,4200
stonehousebaking.com,United States,,,,,
jamesdemars.com,United States,,,,,
coregearusa.com,United States,California,Riverside,92508,,
tetonthaivillage.com,United States,Wyoming,Teton Village,83025,Granite Loop,7342
kindlersgemjewelers.com,United States,Texas,Waco,76711,,
littletrendsetter.com,United States,,,,,
tamethewater.com,United States,,,,,
bobosremi.com,United States,California,Buena Park,90620,,
historicldstours.com,United States,Utah,South Jordan,84095,,
bakerbrand.com,United States,California,Santa Monica,90405,2216 Main,3993
hopeihave.org,,,,,,
burdelaw.com,United States,,,,,
bregmanpartners.com,United States,,,,,
losangelespest.com,United States,California,Orange,92865,,
techforce.ai,,경기도,구리시,11921,,
taxprepusa.com,United States,,,,,
1stopmodelshoots.com,United States,,,,,
wesleyhousing.org,United States,New York,Schenectady,12345,,
londonburyhomes.com,United States,,,,,
roanefamilydental.com,United States,,,,,
stbernardhs.com,United States,,,,,
newleafsc.com,United States,North Carolina,Wilmington,28401,,
voodooconsulting.com,United States,Louisiana,New Orleans,70130,Magazine,643
scoreboardmn.com,United States,,,,,
manddbirdfarm.com,United States,Delaware,Harbeson,19951,Lewes Georgetown,26754
leathercoatsetc.com,United States,New York,New York,10018,,
coxreels.com,United States,Arizona,Tempe,85283,,
promoviper.com,United States,Georgia,Hazlehurst,31539,,
appcasual.net,,,,,,
meditatingentrepreneur.com,United States,Iowa,Fairfield,52556,,
silverminemotors.com,United States,New York,Fort Hunter,12069,,
fivedegreesconsulting.com,United States,Utah,Salt Lake City,84106,,
greenelectricsolarsolutions.com,United States,California,San Diego,92111,,
salesianhigh.org,United States,New York,New Rochelle,10801,E. Main,148
fiba.net,United States,Florida,Miami,33130,,
billingssecuritycameras.com,United States,Montana,Billings,59101,,
div.energy,United States,Ohio,Canton,44718,,
valentbiosciences.com,United States,Illinois,Libertyville,60048,Innovation,1910
switcheyecenter.com,United States,Michigan,Taylor,48180,Telegraph,8950
henges.com,United States,Missouri,Earth City,63045,4133 Shoreline,6600
tkimages.com,United States,Delaware,Wilmington,19803,,
canceriq.com,United States,Illinois,Chicago,60654,,
tapestrips.com,United States,Illinois,Antioch,60002,Orchard,405
springshare.com,United States,Florida,Miami,33131,,
teladata.com,United States,California,Fremont,94538,,
spencercreativegroup.com,United States,,,,,
parkwaytoyota.com,United States,New Jersey,Englewood Cliffs,07632,Sylvan,50
airform.co,Colombia,,,,Primrose,39118
sureleader.com,United States,Pennsylvania,Greensburg,15605,,
tomgillam.com,United States,Tennessee,Nashville,37212,,
merchantportfolios.com,United States,,,,,
bootleggerlasvegas.com,United States,Nevada,Las Vegas,89123,,
mojenta.com,United States,,,,,
sherinixonteam.com,United States,South Carolina,Hilton Head Island,29926,Lafayette,8
synpoly.com,United States,Texas,Sugar Land,77487,,
vkhall-law.com,United States,,,,,
usfaiu.com,United States,,,,,
wheelalignmenttorrance.com,United States,California,Torrance,90501,,
plurfectinc.com,United States,,,,,
harborlightsri.com,United States,Rhode Island,Warwick,02886,Post,2138
gokeyless.com,United States,Ohio,Miamisburg,45342,,
tcors.com,United States,Connecticut,New London,06320,Broad,43
stonearchcapital.com,United States,Minnesota,Minneapolis,55402,S. 7th,40
fmsymphony.org,United States,North Dakota,Fargo,58103,,
gtownradio.com,United States,,,,,
marylandlanguage.com,United States,,,,,
jankeco.com,United States,Texas,League City,77573,,
millerconsultants.com,United States,Maryland,Middletown,21769,,
tradingpinsdirect.com,United States,,,,,
blueprinthomeinspection.com,United States,Colorado,Boulder,80301,,
spokenwordimages.com,United States,,,,,
toandr.com,United States,,,,,
amerifirstloan.com,United States,,,,,
ranking-konzept.de,Germany,Brandenburg,Wensickendorf,16515,,
scadametrics.com,United States,Illinois,Manteno,60950,,
joejohnstattoos.com,United States,,,,,
caribbean-sea.org,,,,,,
rek-ins.com,United States,,,,,
usmrc.org,United States,Rhode Island,Middletown,02842,Aquidneck,344
accu-profile.com,United States,,,,,
chrislowry.com,United States,,,,,
innocon.com,United States,,,,,
artslettersandnumbers.com,United States,New York,Averill Park,12018,,
clandestinodining.com,United States,,,,,
silverlakepress.net,United States,North Dakota,Fargo,58103,,
tri-starmechanical.com,United States,Illinois,Elk Grove Village,60007,Joey,114
vbclink.com,United States,South Dakota,Sioux Falls,57106,S Westlake,2571
veteransrebuildinglife.org,United States,New York,Astoria,11105,,
mimivax.com,United States,New York,Buffalo,14263,,
bmbeans.com,United States,New York,Schenectady,12345,,
oregonsportshall.org,United States,Oregon,Beaverton,97005,,
barefootinternational.com,United States,Wisconsin,Milwaukee,53212,,
airservicesco.com,United States,Wisconsin,New Berlin,53151,Seegers,211
deltaglobalinvestments.com,United States,Massachusetts,Bolton,01740,,
aurorak12.org,,,,,,
thevillahome.com,United States,New York,Philmont,12565,,
ateras.com,United States,,,,,
shellblack.com,United States,New York,New York,10005,,
brooksidechapelfh.com,United States,New Hampshire,Plaistow,03865,Main,116
turntablelab.com,United States,,,,,
rodneyyoungphotography.com,United States,Texas,Mansfield,76063,,
superiordistribution.net,United States,Texas,Mckinney,75070,State,7440
curekc.org,,,,,,
powertofly.com,United States,Mazovia,Warszawa,00008,,
dfrealtors.com,United States,New Jersey,Stone Harbor,08247,Third,9614
counter-productions.org,United States,,,,,
gianellis.net,United States,California,Rancho Cordova,95670,,
alphamedaesthetics.com,United States,North Carolina,Fayetteville,28303,,
moviestarjacket.com,United States,New Jersey,New Providence,07974,Williams Mine,1044
ugrokit.com,United States,Colorado,Steamboat Springs,80477,24 5th,770852
atlinkcom.com,United States,Texas,Houston,77058,,
shadowhills.org,United States,Nevada,Las Vegas,89128,,
smallgirlspr.com,United States,New York,New York,10011,,
warsawwireless.com,United States,Ohio,Cincinnati,45205,,
murane.com,United States,,,,,
complimentarycrap.com,United States,,,,,
